{
"type": "FeatureCollection",
"name": "clusters_by_year",
"crs": { "type": "name", "properties": { "name": "urn:ogc:def:crs:OGC:1.3:CRS84" } },
"features": [
{ "type": "Feature", "properties": { "cluster_id": 1, "year": 2019, "area_km2": 0.44 }, "geometry": { "type": "Polygon", "coordinates": [ [ [ 80.262385068402239, 13.087197370501025 ], [ 80.262382379284588, 13.0881015606869 ], [ 80.262379689964803, 13.089005750808999 ], [ 80.262377000442854, 13.089909940867326 ], [ 80.262374310718755, 13.090814130861872 ], [ 80.263296727841166, 13.090816765887562 ], [ 80.26421914516547, 13.090819397616729 ], [ 80.265141562691454, 13.09082202604937 ], [ 80.266063980418821, 13.090824651185487 ], [ 80.266986398347342, 13.09082727302507 ], [ 80.266989071257328, 13.089923082091635 ], [ 80.267911486023905, 13.089925700447614 ], [ 80.26791415537042, 13.089021509263343 ], [ 80.268836566975054, 13.089024124136181 ], [ 80.26883923275858, 13.088119932701307 ], [ 80.268841898341748, 13.087215741202668 ], [ 80.26791949346152, 13.087213126703494 ], [ 80.267922162206119, 13.086308935327926 ], [ 80.267924830750118, 13.085404743888606 ], [ 80.267002432793916, 13.085402126467965 ], [ 80.26700510449858, 13.084497935151949 ], [ 80.266082710104584, 13.084495314623483 ], [ 80.266085384969443, 13.083591123431015 ], [ 80.266088059633191, 13.082686932174807 ], [ 80.265165672162169, 13.082684308726522 ], [ 80.265162994137611, 13.0835884997952 ], [ 80.264240603507162, 13.083585872864735 ], [ 80.264237921920184, 13.084490063681899 ], [ 80.263315528130306, 13.084487433268793 ], [ 80.263312842980397, 13.0853916238342 ], [ 80.262390446031091, 13.085388989937979 ], [ 80.26238775731774, 13.086293180251381 ], [ 80.262385068402239, 13.087197370501025 ] ] ] } },
{ "type": "Feature", "properties": { "cluster_id": 2, "year": 2019, "area_km2": 0.11 }, "geometry": { "type": "MultiPolygon", "coordinates": [ [ [ [ 80.271630350972856, 13.079990026170019 ], [ 80.272552729765422, 13.079992625999713 ], [ 80.272555380106056, 13.079088433182472 ], [ 80.271633004673305, 13.079085833538658 ], [ 80.271630350972856, 13.079990026170019 ] ] ], [ [ [ 80.272552729765422, 13.079992625999713 ], [ 80.272550079225439, 13.080896818753233 ], [ 80.272547428486135, 13.08180101144303 ], [ 80.273469814198435, 13.081803608350281 ], [ 80.273472461577427, 13.080899415474841 ], [ 80.273475108757324, 13.079995222535677 ], [ 80.272552729765422, 13.079992625999713 ] ] ], [ [ [ 80.273464518843184, 13.083611993909972 ], [ 80.274386911476, 13.083614587893843 ], [ 80.274384266860821, 13.084518780763505 ], [ 80.274381622046775, 13.085422973569425 ], [ 80.274378977033891, 13.086327166311598 ], [ 80.275301379949596, 13.08632975755633 ], [ 80.276223783063912, 13.086332345505673 ], [ 80.276226421353599, 13.085428152393369 ], [ 80.27622905944493, 13.084523959217327 ], [ 80.27530666305357, 13.084521371637873 ], [ 80.275309304307669, 13.083617178583038 ], [ 80.275311945363157, 13.082712985464472 ], [ 80.274389555892327, 13.082710394960454 ], [ 80.27439220010983, 13.081806201963332 ], [ 80.273469814198435, 13.081803608350281 ], [ 80.27346716662035, 13.082707801161996 ], [ 80.273464518843184, 13.083611993909972 ] ] ] ] } },
{ "type": "Feature", "properties": { "cluster_id": 3, "year": 2019, "area_km2": 0.3 }, "geometry": { "type": "Polygon", "coordinates": [ [ [ 80.276247520530831, 13.078194605200659 ], [ 80.276244883827843, 13.079098798822766 ], [ 80.27532250759927, 13.079096212352946 ], [ 80.275319867338126, 13.080000405726404 ], [ 80.275317226878386, 13.080904599036151 ], [ 80.27623960982686, 13.080907185875846 ], [ 80.276236972528892, 13.081811379306805 ], [ 80.276234335032569, 13.082715572674045 ], [ 80.277156724900323, 13.082718156589166 ], [ 80.277154090566526, 13.083622350077379 ], [ 80.278076483993203, 13.08362493088252 ], [ 80.278073852822416, 13.084529124491477 ], [ 80.278071221453786, 13.085433318036699 ], [ 80.278993621800794, 13.085435895915619 ], [ 80.279916022345361, 13.085438470499378 ], [ 80.279918646991277, 13.08453427658592 ], [ 80.280841044371812, 13.084536847690744 ], [ 80.281763441949451, 13.084539415500631 ], [ 80.281766059675789, 13.083635221156149 ], [ 80.281768677205292, 13.082731026747943 ], [ 80.280846286349657, 13.082728459305111 ], [ 80.280848907042952, 13.081824265016708 ], [ 80.27992651974499, 13.081821694463173 ], [ 80.279929143601578, 13.080917500294815 ], [ 80.279006759861289, 13.080914926631049 ], [ 80.279009386880659, 13.080010732582972 ], [ 80.279012013702456, 13.079106538471184 ], [ 80.278089636879685, 13.07910396188189 ], [ 80.27809226686351, 13.078199767890618 ], [ 80.277169893598128, 13.078197188192277 ], [ 80.276247520530831, 13.078194605200659 ] ] ] } },
{ "type": "Feature", "properties": { "cluster_id": 4, "year": 2019, "area_km2": 0.3 }, "geometry": { "type": "Polygon", "coordinates": [ [ [ 80.265200468157957, 13.070929819034511 ], [ 80.264278124555744, 13.07092719473266 ], [ 80.264275445791199, 13.071831386441938 ], [ 80.264272766825101, 13.072735578087519 ], [ 80.264270087657394, 13.073639769669397 ], [ 80.264267408288106, 13.07454396118758 ], [ 80.264264728717237, 13.075448152642048 ], [ 80.264262048944772, 13.076352344032804 ], [ 80.265184412695874, 13.076354969461173 ], [ 80.265181736080834, 13.077259160975972 ], [ 80.266104103392323, 13.0772617832991 ], [ 80.266101429935233, 13.078165974937706 ], [ 80.26702380080711, 13.078168594155123 ], [ 80.267026470904909, 13.077264402329231 ], [ 80.267029140801867, 13.076360210439624 ], [ 80.267031810497983, 13.075456018486305 ], [ 80.267034479993285, 13.074551826469277 ], [ 80.267956837630337, 13.074554441645258 ], [ 80.267959503566487, 13.073650249377479 ], [ 80.268881858045845, 13.073652861074343 ], [ 80.268884520423384, 13.072748668556059 ], [ 80.268887182600608, 13.071844475974077 ], [ 80.267964834837088, 13.071841864650827 ], [ 80.267967500171537, 13.070937672191967 ], [ 80.267045155966102, 13.070935057764165 ], [ 80.267047824457251, 13.070030865428661 ], [ 80.266125483809915, 13.070028247896783 ], [ 80.266128155457267, 13.069124055684869 ], [ 80.265205818368003, 13.069121435049389 ], [ 80.265203143363635, 13.070025627073793 ], [ 80.265200468157957, 13.070929819034511 ] ] ] } },
{ "type": "Feature", "properties": { "cluster_id": 5, "year": 2019, "area_km2": 0.55 }, "geometry": { "type": "Polygon", "coordinates": [ [ [ 80.278121183630546, 13.068253629783023 ], [ 80.277198847303978, 13.068251052113689 ], [ 80.276276511175411, 13.068248471153671 ], [ 80.276273876653761, 13.069152665476338 ], [ 80.276271241933813, 13.070056859735336 ], [ 80.275348899289682, 13.070054275114801 ], [ 80.275346261014136, 13.070958469125204 ], [ 80.276268607015567, 13.070961053930668 ], [ 80.277190953215296, 13.070963635444741 ], [ 80.278113299613054, 13.070966213667424 ], [ 80.278110671211664, 13.07187040816822 ], [ 80.279033021164778, 13.071872983283727 ], [ 80.279030395923414, 13.072777177905065 ], [ 80.279027770484504, 13.073681372462723 ], [ 80.279025144848035, 13.074585566956697 ], [ 80.279022519014035, 13.075489761386986 ], [ 80.279944882597519, 13.075492333946801 ], [ 80.280867246378293, 13.075494903214038 ], [ 80.281789610356128, 13.075497469188694 ], [ 80.282711974530741, 13.075500031870767 ], [ 80.282709361934565, 13.076404226971903 ], [ 80.283631729664563, 13.076406786544435 ], [ 80.28455409759087, 13.076409342824137 ], [ 80.285476465713202, 13.076411895811013 ], [ 80.285479068232831, 13.075507700161445 ], [ 80.285481670556692, 13.074603504448193 ], [ 80.285484272684755, 13.073699308671264 ], [ 80.28548687461705, 13.072795112830658 ], [ 80.284564519928622, 13.072792560574078 ], [ 80.284567125022988, 13.071888364852372 ], [ 80.283644773888412, 13.071885809486709 ], [ 80.283647382144352, 13.07098161388414 ], [ 80.282725034563654, 13.070979055409872 ], [ 80.282727645980643, 13.070074859926679 ], [ 80.281805301953796, 13.07007229834427 ], [ 80.281807916531349, 13.069168102980688 ], [ 80.280885576058353, 13.069165538290617 ], [ 80.28088819379596, 13.068261343046883 ], [ 80.279965856876814, 13.068258775249621 ], [ 80.279043520154929, 13.068256204161667 ], [ 80.278121183630546, 13.068253629783023 ] ] ] } },
{ "type": "Feature", "properties": { "cluster_id": 1, "year": 2020, "area_km2": 0.44 }, "geometry": { "type": "Polygon", "coordinates": [ [ [ 80.262385068402239, 13.087197370501025 ], [ 80.262382379284588, 13.0881015606869 ], [ 80.262379689964803, 13.089005750808999 ], [ 80.262377000442854, 13.089909940867326 ], [ 80.262374310718755, 13.090814130861872 ], [ 80.263296727841166, 13.090816765887562 ], [ 80.26421914516547, 13.090819397616729 ], [ 80.265141562691454, 13.09082202604937 ], [ 80.266063980418821, 13.090824651185487 ], [ 80.266986398347342, 13.09082727302507 ], [ 80.266989071257328, 13.089923082091635 ], [ 80.267911486023905, 13.089925700447614 ], [ 80.26791415537042, 13.089021509263343 ], [ 80.268836566975054, 13.089024124136181 ], [ 80.26883923275858, 13.088119932701307 ], [ 80.268841898341748, 13.087215741202668 ], [ 80.26791949346152, 13.087213126703494 ], [ 80.267922162206119, 13.086308935327926 ], [ 80.267924830750118, 13.085404743888606 ], [ 80.267002432793916, 13.085402126467965 ], [ 80.26700510449858, 13.084497935151949 ], [ 80.266082710104584, 13.084495314623483 ], [ 80.266085384969443, 13.083591123431015 ], [ 80.266088059633191, 13.082686932174807 ], [ 80.265165672162169, 13.082684308726522 ], [ 80.265162994137611, 13.0835884997952 ], [ 80.264240603507162, 13.083585872864735 ], [ 80.264237921920184, 13.084490063681899 ], [ 80.263315528130306, 13.084487433268793 ], [ 80.263312842980397, 13.0853916238342 ], [ 80.262390446031091, 13.085388989937979 ], [ 80.26238775731774, 13.086293180251381 ], [ 80.262385068402239, 13.087197370501025 ] ] ] } },
{ "type": "Feature", "properties": { "cluster_id": 2, "year": 2020, "area_km2": 0.12 }, "geometry": { "type": "MultiPolygon", "coordinates": [ [ [ [ 80.27071062944016, 13.079083230601352 ], [ 80.271633004673305, 13.079085833538658 ], [ 80.271635658174176, 13.078181640843574 ], [ 80.270713286300577, 13.078179038092379 ], [ 80.27071062944016, 13.079083230601352 ] ] ], [ [ [ 80.272552729765422, 13.079992625999713 ], [ 80.272555380106056, 13.079088433182472 ], [ 80.271633004673305, 13.079085833538658 ], [ 80.271630350972856, 13.079990026170019 ], [ 80.272552729765422, 13.079992625999713 ] ] ], [ [ [ 80.272552729765422, 13.079992625999713 ], [ 80.272550079225439, 13.080896818753233 ], [ 80.272547428486135, 13.08180101144303 ], [ 80.273469814198435, 13.081803608350281 ], [ 80.273472461577427, 13.080899415474841 ], [ 80.273475108757324, 13.079995222535677 ], [ 80.272552729765422, 13.079992625999713 ] ] ], [ [ [ 80.273464518843184, 13.083611993909972 ], [ 80.274386911476, 13.083614587893843 ], [ 80.274384266860821, 13.084518780763505 ], [ 80.274381622046775, 13.085422973569425 ], [ 80.274378977033891, 13.086327166311598 ], [ 80.275301379949596, 13.08632975755633 ], [ 80.276223783063912, 13.086332345505673 ], [ 80.276226421353599, 13.085428152393369 ], [ 80.27622905944493, 13.084523959217327 ], [ 80.27530666305357, 13.084521371637873 ], [ 80.275309304307669, 13.083617178583038 ], [ 80.275311945363157, 13.082712985464472 ], [ 80.274389555892327, 13.082710394960454 ], [ 80.27439220010983, 13.081806201963332 ], [ 80.273469814198435, 13.081803608350281 ], [ 80.27346716662035, 13.082707801161996 ], [ 80.273464518843184, 13.083611993909972 ] ] ] ] } },
{ "type": "Feature", "properties": { "cluster_id": 3, "year": 2020, "area_km2": 0.3 }, "geometry": { "type": "Polygon", "coordinates": [ [ [ 80.276247520530831, 13.078194605200659 ], [ 80.276244883827843, 13.079098798822766 ], [ 80.27532250759927, 13.079096212352946 ], [ 80.275319867338126, 13.080000405726404 ], [ 80.275317226878386, 13.080904599036151 ], [ 80.27623960982686, 13.080907185875846 ], [ 80.276236972528892, 13.081811379306805 ], [ 80.276234335032569, 13.082715572674045 ], [ 80.277156724900323, 13.082718156589166 ], [ 80.277154090566526, 13.083622350077379 ], [ 80.278076483993203, 13.08362493088252 ], [ 80.278073852822416, 13.084529124491477 ], [ 80.278071221453786, 13.085433318036699 ], [ 80.278993621800794, 13.085435895915619 ], [ 80.279916022345361, 13.085438470499378 ], [ 80.279918646991277, 13.08453427658592 ], [ 80.280841044371812, 13.084536847690744 ], [ 80.281763441949451, 13.084539415500631 ], [ 80.281766059675789, 13.083635221156149 ], [ 80.281768677205292, 13.082731026747943 ], [ 80.280846286349657, 13.082728459305111 ], [ 80.280848907042952, 13.081824265016708 ], [ 80.27992651974499, 13.081821694463173 ], [ 80.279929143601578, 13.080917500294815 ], [ 80.279006759861289, 13.080914926631049 ], [ 80.279009386880659, 13.080010732582972 ], [ 80.279012013702456, 13.079106538471184 ], [ 80.278089636879685, 13.07910396188189 ], [ 80.27809226686351, 13.078199767890618 ], [ 80.277169893598128, 13.078197188192277 ], [ 80.276247520530831, 13.078194605200659 ] ] ] } },
{ "type": "Feature", "properties": { "cluster_id": 4, "year": 2020, "area_km2": 0.35 }, "geometry": { "type": "Polygon", "coordinates": [ [ [ 80.264278124555744, 13.07092719473266 ], [ 80.264275445791199, 13.071831386441938 ], [ 80.264272766825101, 13.072735578087519 ], [ 80.264270087657394, 13.073639769669397 ], [ 80.264267408288106, 13.07454396118758 ], [ 80.264264728717237, 13.075448152642048 ], [ 80.264262048944772, 13.076352344032804 ], [ 80.265184412695874, 13.076354969461173 ], [ 80.265181736080834, 13.077259160975972 ], [ 80.266104103392323, 13.0772617832991 ], [ 80.266101429935233, 13.078165974937706 ], [ 80.26702380080711, 13.078168594155123 ], [ 80.267946171879842, 13.078171210079303 ], [ 80.267948838618352, 13.07726701806636 ], [ 80.267951505156262, 13.076362825989699 ], [ 80.267029140801867, 13.076360210439624 ], [ 80.267031810497983, 13.075456018486305 ], [ 80.267034479993285, 13.074551826469277 ], [ 80.267956837630337, 13.074554441645258 ], [ 80.267959503566487, 13.073650249377479 ], [ 80.268881858045845, 13.073652861074343 ], [ 80.269804212725518, 13.073655469479148 ], [ 80.269806871745018, 13.072751276774286 ], [ 80.268884520423384, 13.072748668556059 ], [ 80.268887182600608, 13.071844475974077 ], [ 80.268889844577515, 13.070940283328408 ], [ 80.267967500171537, 13.070937672191967 ], [ 80.2679701653054, 13.070033479669416 ], [ 80.267047824457251, 13.070030865428661 ], [ 80.266125483809915, 13.070028247896783 ], [ 80.266128155457267, 13.069124055684869 ], [ 80.265205818368003, 13.069121435049389 ], [ 80.265203143363635, 13.070025627073793 ], [ 80.265200468157957, 13.070929819034511 ], [ 80.264278124555744, 13.07092719473266 ] ] ] } },
{ "type": "Feature", "properties": { "cluster_id": 5, "year": 2020, "area_km2": 0.53 }, "geometry": { "type": "Polygon", "coordinates": [ [ [ 80.278121183630546, 13.068253629783023 ], [ 80.277198847303978, 13.068251052113689 ], [ 80.276276511175411, 13.068248471153671 ], [ 80.276273876653761, 13.069152665476338 ], [ 80.276271241933813, 13.070056859735336 ], [ 80.275348899289682, 13.070054275114801 ], [ 80.275346261014136, 13.070958469125204 ], [ 80.276268607015567, 13.070961053930668 ], [ 80.277190953215296, 13.070963635444741 ], [ 80.278113299613054, 13.070966213667424 ], [ 80.278110671211664, 13.07187040816822 ], [ 80.279033021164778, 13.071872983283727 ], [ 80.279030395923414, 13.072777177905065 ], [ 80.279027770484504, 13.073681372462723 ], [ 80.279025144848035, 13.074585566956697 ], [ 80.27994750507294, 13.074588139332526 ], [ 80.279944882597519, 13.075492333946801 ], [ 80.280867246378293, 13.075494903214038 ], [ 80.281789610356128, 13.075497469188694 ], [ 80.282711974530741, 13.075500031870767 ], [ 80.282709361934565, 13.076404226971903 ], [ 80.283631729664563, 13.076406786544435 ], [ 80.28455409759087, 13.076409342824137 ], [ 80.285476465713202, 13.076411895811013 ], [ 80.285479068232831, 13.075507700161445 ], [ 80.285481670556692, 13.074603504448193 ], [ 80.285484272684755, 13.073699308671264 ], [ 80.28548687461705, 13.072795112830658 ], [ 80.284564519928622, 13.072792560574078 ], [ 80.284567125022988, 13.071888364852372 ], [ 80.283644773888412, 13.071885809486709 ], [ 80.283647382144352, 13.07098161388414 ], [ 80.282725034563654, 13.070979055409872 ], [ 80.282727645980643, 13.070074859926679 ], [ 80.281805301953796, 13.07007229834427 ], [ 80.281807916531349, 13.069168102980688 ], [ 80.280885576058353, 13.069165538290617 ], [ 80.28088819379596, 13.068261343046883 ], [ 80.279965856876814, 13.068258775249621 ], [ 80.279043520154929, 13.068256204161667 ], [ 80.278121183630546, 13.068253629783023 ] ], [ [ 80.28364216543622, 13.072790005025606 ], [ 80.282719811140083, 13.072787446185254 ], [ 80.28272242295013, 13.071883250829398 ], [ 80.283644773888412, 13.071885809486709 ], [ 80.28364216543622, 13.072790005025606 ] ] ] } },
{ "type": "Feature", "properties": { "cluster_id": 1, "year": 2021, "area_km2": 0.44 }, "geometry": { "type": "Polygon", "coordinates": [ [ [ 80.262385068402239, 13.087197370501025 ], [ 80.262382379284588, 13.0881015606869 ], [ 80.262379689964803, 13.089005750808999 ], [ 80.262377000442854, 13.089909940867326 ], [ 80.262374310718755, 13.090814130861872 ], [ 80.263296727841166, 13.090816765887562 ], [ 80.26421914516547, 13.090819397616729 ], [ 80.265141562691454, 13.09082202604937 ], [ 80.266063980418821, 13.090824651185487 ], [ 80.266986398347342, 13.09082727302507 ], [ 80.266989071257328, 13.089923082091635 ], [ 80.267911486023905, 13.089925700447614 ], [ 80.26791415537042, 13.089021509263343 ], [ 80.268836566975054, 13.089024124136181 ], [ 80.26883923275858, 13.088119932701307 ], [ 80.268841898341748, 13.087215741202668 ], [ 80.26791949346152, 13.087213126703494 ], [ 80.267922162206119, 13.086308935327926 ], [ 80.267924830750118, 13.085404743888606 ], [ 80.267002432793916, 13.085402126467965 ], [ 80.26700510449858, 13.084497935151949 ], [ 80.266082710104584, 13.084495314623483 ], [ 80.266085384969443, 13.083591123431015 ], [ 80.266088059633191, 13.082686932174807 ], [ 80.265165672162169, 13.082684308726522 ], [ 80.265162994137611, 13.0835884997952 ], [ 80.264240603507162, 13.083585872864735 ], [ 80.264237921920184, 13.084490063681899 ], [ 80.263315528130306, 13.084487433268793 ], [ 80.263312842980397, 13.0853916238342 ], [ 80.262390446031091, 13.085388989937979 ], [ 80.26238775731774, 13.086293180251381 ], [ 80.262385068402239, 13.087197370501025 ] ] ] } },
{ "type": "Feature", "properties": { "cluster_id": 2, "year": 2021, "area_km2": 0.1 }, "geometry": { "type": "MultiPolygon", "coordinates": [ [ [ [ 80.272550079225439, 13.080896818753233 ], [ 80.272547428486135, 13.08180101144303 ], [ 80.273469814198435, 13.081803608350281 ], [ 80.273472461577427, 13.080899415474841 ], [ 80.273475108757324, 13.079995222535677 ], [ 80.272552729765422, 13.079992625999713 ], [ 80.272550079225439, 13.080896818753233 ] ] ], [ [ [ 80.27346716662035, 13.082707801161996 ], [ 80.273464518843184, 13.083611993909972 ], [ 80.274386911476, 13.083614587893843 ], [ 80.274384266860821, 13.084518780763505 ], [ 80.274381622046775, 13.085422973569425 ], [ 80.274378977033891, 13.086327166311598 ], [ 80.275301379949596, 13.08632975755633 ], [ 80.276223783063912, 13.086332345505673 ], [ 80.276226421353599, 13.085428152393369 ], [ 80.27622905944493, 13.084523959217327 ], [ 80.27530666305357, 13.084521371637873 ], [ 80.275309304307669, 13.083617178583038 ], [ 80.275311945363157, 13.082712985464472 ], [ 80.274389555892327, 13.082710394960454 ], [ 80.27439220010983, 13.081806201963332 ], [ 80.273469814198435, 13.081803608350281 ], [ 80.27346716662035, 13.082707801161996 ] ] ] ] } },
{ "type": "Feature", "properties": { "cluster_id": 3, "year": 2021, "area_km2": 0.32 }, "geometry": { "type": "Polygon", "coordinates": [ [ [ 80.275317226878386, 13.080904599036151 ], [ 80.27623960982686, 13.080907185875846 ], [ 80.276236972528892, 13.081811379306805 ], [ 80.276234335032569, 13.082715572674045 ], [ 80.277156724900323, 13.082718156589166 ], [ 80.277154090566526, 13.083622350077379 ], [ 80.278076483993203, 13.08362493088252 ], [ 80.278073852822416, 13.084529124491477 ], [ 80.278071221453786, 13.085433318036699 ], [ 80.278993621800794, 13.085435895915619 ], [ 80.279916022345361, 13.085438470499378 ], [ 80.279918646991277, 13.08453427658592 ], [ 80.280841044371812, 13.084536847690744 ], [ 80.281763441949451, 13.084539415500631 ], [ 80.281766059675789, 13.083635221156149 ], [ 80.281768677205292, 13.082731026747943 ], [ 80.280846286349657, 13.082728459305111 ], [ 80.280848907042952, 13.081824265016708 ], [ 80.27992651974499, 13.081821694463173 ], [ 80.279929143601578, 13.080917500294815 ], [ 80.279006759861289, 13.080914926631049 ], [ 80.279009386880659, 13.080010732582972 ], [ 80.279012013702456, 13.079106538471184 ], [ 80.278089636879685, 13.07910396188189 ], [ 80.27809226686351, 13.078199767890618 ], [ 80.277169893598128, 13.078197188192277 ], [ 80.276247520530831, 13.078194605200659 ], [ 80.275325147661846, 13.078192018915773 ], [ 80.274402774991444, 13.078189429337614 ], [ 80.27440013156928, 13.079093622589619 ], [ 80.27532250759927, 13.079096212352946 ], [ 80.275319867338126, 13.080000405726404 ], [ 80.275317226878386, 13.080904599036151 ] ] ] } },
{ "type": "Feature", "properties": { "cluster_id": 4, "year": 2021, "area_km2": 0.37 }, "geometry": { "type": "MultiPolygon", "coordinates": [ [ [ [ 80.264278124555744, 13.07092719473266 ], [ 80.264275445791199, 13.071831386441938 ], [ 80.264272766825101, 13.072735578087519 ], [ 80.264270087657394, 13.073639769669397 ], [ 80.264267408288106, 13.07454396118758 ], [ 80.264264728717237, 13.075448152642048 ], [ 80.264262048944772, 13.076352344032804 ], [ 80.265184412695874, 13.076354969461173 ], [ 80.265181736080834, 13.077259160975972 ], [ 80.266104103392323, 13.0772617832991 ], [ 80.266101429935233, 13.078165974937706 ], [ 80.26702380080711, 13.078168594155123 ], [ 80.267946171879842, 13.078171210079303 ], [ 80.267948838618352, 13.07726701806636 ], [ 80.267951505156262, 13.076362825989699 ], [ 80.267029140801867, 13.076360210439624 ], [ 80.267031810497983, 13.075456018486305 ], [ 80.267034479993285, 13.074551826469277 ], [ 80.267956837630337, 13.074554441645258 ], [ 80.267959503566487, 13.073650249377479 ], [ 80.268881858045845, 13.073652861074343 ], [ 80.269804212725518, 13.073655469479148 ], [ 80.269806871745018, 13.072751276774286 ], [ 80.268884520423384, 13.072748668556059 ], [ 80.268887182600608, 13.071844475974077 ], [ 80.268889844577515, 13.070940283328408 ], [ 80.267967500171537, 13.070937672191967 ], [ 80.2679701653054, 13.070033479669416 ], [ 80.267047824457251, 13.070030865428661 ], [ 80.266125483809915, 13.070028247896783 ], [ 80.266128155457267, 13.069124055684869 ], [ 80.265205818368003, 13.069121435049389 ], [ 80.265203143363635, 13.070025627073793 ], [ 80.265200468157957, 13.070929819034511 ], [ 80.264278124555744, 13.07092719473266 ] ] ], [ [ [ 80.268892506354121, 13.070036090619054 ], [ 80.268889844577515, 13.070940283328408 ], [ 80.269812189183838, 13.070942891173488 ], [ 80.269814847603143, 13.070038698277562 ], [ 80.268892506354121, 13.070036090619054 ] ] ], [ [ [ 80.267943504940746, 13.079075402028527 ], [ 80.26886587957361, 13.079078014846282 ], [ 80.268868543153161, 13.078173822710241 ], [ 80.267946171879842, 13.078171210079303 ], [ 80.267943504940746, 13.079075402028527 ] ] ] ] } },
{ "type": "Feature", "properties": { "cluster_id": 5, "year": 2021, "area_km2": 0.51 }, "geometry": { "type": "Polygon", "coordinates": [ [ [ 80.275346261014136, 13.070958469125204 ], [ 80.276268607015567, 13.070961053930668 ], [ 80.277190953215296, 13.070963635444741 ], [ 80.278113299613054, 13.070966213667424 ], [ 80.278110671211664, 13.07187040816822 ], [ 80.279033021164778, 13.071872983283727 ], [ 80.279030395923414, 13.072777177905065 ], [ 80.279027770484504, 13.073681372462723 ], [ 80.279950127351057, 13.073683944654565 ], [ 80.27994750507294, 13.074588139332526 ], [ 80.279944882597519, 13.075492333946801 ], [ 80.280867246378293, 13.075494903214038 ], [ 80.281789610356128, 13.075497469188694 ], [ 80.282711974530741, 13.075500031870767 ], [ 80.282709361934565, 13.076404226971903 ], [ 80.283631729664563, 13.076406786544435 ], [ 80.28455409759087, 13.076409342824137 ], [ 80.285476465713202, 13.076411895811013 ], [ 80.285479068232831, 13.075507700161445 ], [ 80.285481670556692, 13.074603504448193 ], [ 80.285484272684755, 13.073699308671264 ], [ 80.28548687461705, 13.072795112830658 ], [ 80.284564519928622, 13.072792560574078 ], [ 80.284567125022988, 13.071888364852372 ], [ 80.283644773888412, 13.071885809486709 ], [ 80.283647382144352, 13.07098161388414 ], [ 80.282725034563654, 13.070979055409872 ], [ 80.282727645980643, 13.070074859926679 ], [ 80.281805301953796, 13.07007229834427 ], [ 80.281807916531349, 13.069168102980688 ], [ 80.280885576058353, 13.069165538290617 ], [ 80.279963235782375, 13.069162970309614 ], [ 80.279965856876814, 13.068258775249621 ], [ 80.279043520154929, 13.068256204161667 ], [ 80.278121183630546, 13.068253629783023 ], [ 80.277198847303978, 13.068251052113689 ], [ 80.276276511175411, 13.068248471153671 ], [ 80.276273876653761, 13.069152665476338 ], [ 80.276271241933813, 13.070056859735336 ], [ 80.275348899289682, 13.070054275114801 ], [ 80.275346261014136, 13.070958469125204 ] ], [ [ 80.28364216543622, 13.072790005025606 ], [ 80.282719811140083, 13.072787446185254 ], [ 80.28272242295013, 13.071883250829398 ], [ 80.283644773888412, 13.071885809486709 ], [ 80.28364216543622, 13.072790005025606 ] ] ] } },
{ "type": "Feature", "properties": { "cluster_id": 1, "year": 2022, "area_km2": 0.43 }, "geometry": { "type": "Polygon", "coordinates": [ [ [ 80.262385068402239, 13.087197370501025 ], [ 80.262382379284588, 13.0881015606869 ], [ 80.262379689964803, 13.089005750808999 ], [ 80.262377000442854, 13.089909940867326 ], [ 80.262374310718755, 13.090814130861872 ], [ 80.263296727841166, 13.090816765887562 ], [ 80.26421914516547, 13.090819397616729 ], [ 80.265141562691454, 13.09082202604937 ], [ 80.266063980418821, 13.090824651185487 ], [ 80.266986398347342, 13.09082727302507 ], [ 80.266989071257328, 13.089923082091635 ], [ 80.267911486023905, 13.089925700447614 ], [ 80.26791415537042, 13.089021509263343 ], [ 80.268836566975054, 13.089024124136181 ], [ 80.26883923275858, 13.088119932701307 ], [ 80.268841898341748, 13.087215741202668 ], [ 80.26791949346152, 13.087213126703494 ], [ 80.267922162206119, 13.086308935327926 ], [ 80.267924830750118, 13.085404743888606 ], [ 80.267002432793916, 13.085402126467965 ], [ 80.266080035038584, 13.085399505752195 ], [ 80.266082710104584, 13.084495314623483 ], [ 80.266085384969443, 13.083591123431015 ], [ 80.266088059633191, 13.082686932174807 ], [ 80.265165672162169, 13.082684308726522 ], [ 80.265162994137611, 13.0835884997952 ], [ 80.264240603507162, 13.083585872864735 ], [ 80.264237921920184, 13.084490063681899 ], [ 80.263315528130306, 13.084487433268793 ], [ 80.263312842980397, 13.0853916238342 ], [ 80.262390446031091, 13.085388989937979 ], [ 80.26238775731774, 13.086293180251381 ], [ 80.262385068402239, 13.087197370501025 ] ] ] } },
{ "type": "Feature", "properties": { "cluster_id": 2, "year": 2022, "area_km2": 0.09 }, "geometry": { "type": "MultiPolygon", "coordinates": [ [ [ [ 80.272550079225439, 13.080896818753233 ], [ 80.272547428486135, 13.08180101144303 ], [ 80.273469814198435, 13.081803608350281 ], [ 80.273472461577427, 13.080899415474841 ], [ 80.273475108757324, 13.079995222535677 ], [ 80.272552729765422, 13.079992625999713 ], [ 80.272550079225439, 13.080896818753233 ] ] ], [ [ [ 80.27346716662035, 13.082707801161996 ], [ 80.273464518843184, 13.083611993909972 ], [ 80.274386911476, 13.083614587893843 ], [ 80.274384266860821, 13.084518780763505 ], [ 80.274381622046775, 13.085422973569425 ], [ 80.275304021600888, 13.085425564628974 ], [ 80.275301379949596, 13.08632975755633 ], [ 80.276223783063912, 13.086332345505673 ], [ 80.276226421353599, 13.085428152393369 ], [ 80.27622905944493, 13.084523959217327 ], [ 80.27530666305357, 13.084521371637873 ], [ 80.275309304307669, 13.083617178583038 ], [ 80.275311945363157, 13.082712985464472 ], [ 80.274389555892327, 13.082710394960454 ], [ 80.27439220010983, 13.081806201963332 ], [ 80.273469814198435, 13.081803608350281 ], [ 80.27346716662035, 13.082707801161996 ] ] ] ] } },
{ "type": "Feature", "properties": { "cluster_id": 3, "year": 2022, "area_km2": 0.33 }, "geometry": { "type": "Polygon", "coordinates": [ [ [ 80.27440013156928, 13.079093622589619 ], [ 80.27532250759927, 13.079096212352946 ], [ 80.275319867338126, 13.080000405726404 ], [ 80.275317226878386, 13.080904599036151 ], [ 80.27623960982686, 13.080907185875846 ], [ 80.276236972528892, 13.081811379306805 ], [ 80.276234335032569, 13.082715572674045 ], [ 80.277156724900323, 13.082718156589166 ], [ 80.277154090566526, 13.083622350077379 ], [ 80.278076483993203, 13.08362493088252 ], [ 80.278073852822416, 13.084529124491477 ], [ 80.278071221453786, 13.085433318036699 ], [ 80.278993621800794, 13.085435895915619 ], [ 80.279916022345361, 13.085438470499378 ], [ 80.279918646991277, 13.08453427658592 ], [ 80.280841044371812, 13.084536847690744 ], [ 80.281763441949451, 13.084539415500631 ], [ 80.281766059675789, 13.083635221156149 ], [ 80.281768677205292, 13.082731026747943 ], [ 80.280846286349657, 13.082728459305111 ], [ 80.280848907042952, 13.081824265016708 ], [ 80.27992651974499, 13.081821694463173 ], [ 80.279929143601578, 13.080917500294815 ], [ 80.279006759861289, 13.080914926631049 ], [ 80.279009386880659, 13.080010732582972 ], [ 80.279012013702456, 13.079106538471184 ], [ 80.278089636879685, 13.07910396188189 ], [ 80.27809226686351, 13.078199767890618 ], [ 80.277169893598128, 13.078197188192277 ], [ 80.276247520530831, 13.078194605200659 ], [ 80.276250157035506, 13.077290411514841 ], [ 80.275327787525868, 13.077287825414889 ], [ 80.275325147661846, 13.078192018915773 ], [ 80.274402774991444, 13.078189429337614 ], [ 80.27440013156928, 13.079093622589619 ] ] ] } },
{ "type": "Feature", "properties": { "cluster_id": 4, "year": 2022, "area_km2": 0.43 }, "geometry": { "type": "MultiPolygon", "coordinates": [ [ [ [ 80.264278124555744, 13.07092719473266 ], [ 80.264275445791199, 13.071831386441938 ], [ 80.264272766825101, 13.072735578087519 ], [ 80.264270087657394, 13.073639769669397 ], [ 80.264267408288106, 13.07454396118758 ], [ 80.264264728717237, 13.075448152642048 ], [ 80.264262048944772, 13.076352344032804 ], [ 80.265184412695874, 13.076354969461173 ], [ 80.265181736080834, 13.077259160975972 ], [ 80.266104103392323, 13.0772617832991 ], [ 80.266101429935233, 13.078165974937706 ], [ 80.26702380080711, 13.078168594155123 ], [ 80.267026470904909, 13.077264402329231 ], [ 80.267948838618352, 13.07726701806636 ], [ 80.267951505156262, 13.076362825989699 ], [ 80.267029140801867, 13.076360210439624 ], [ 80.267031810497983, 13.075456018486305 ], [ 80.267034479993285, 13.074551826469277 ], [ 80.267956837630337, 13.074554441645258 ], [ 80.267959503566487, 13.073650249377479 ], [ 80.268881858045845, 13.073652861074343 ], [ 80.268879195467974, 13.074557053528938 ], [ 80.269801553505928, 13.07455966212031 ], [ 80.269804212725518, 13.073655469479148 ], [ 80.269806871745018, 13.072751276774286 ], [ 80.270729223266727, 13.072753881700674 ], [ 80.27073187872837, 13.071849688745781 ], [ 80.269809530564459, 13.071847084005729 ], [ 80.268887182600608, 13.071844475974077 ], [ 80.268889844577515, 13.070940283328408 ], [ 80.269812189183838, 13.070942891173488 ], [ 80.269814847603143, 13.070038698277562 ], [ 80.268892506354121, 13.070036090619054 ], [ 80.2679701653054, 13.070033479669416 ], [ 80.267047824457251, 13.070030865428661 ], [ 80.266125483809915, 13.070028247896783 ], [ 80.266128155457267, 13.069124055684869 ], [ 80.265205818368003, 13.069121435049389 ], [ 80.265203143363635, 13.070025627073793 ], [ 80.265200468157957, 13.070929819034511 ], [ 80.264278124555744, 13.07092719473266 ] ] ], [ [ [ 80.266130826903549, 13.068219863409272 ], [ 80.266128155457267, 13.069124055684869 ], [ 80.267050492747586, 13.069126673029471 ], [ 80.267053160837108, 13.068222480566599 ], [ 80.266130826903549, 13.068219863409272 ] ] ], [ [ [ 80.267021130508468, 13.079072785917292 ], [ 80.267943504940746, 13.079075402028527 ], [ 80.26886587957361, 13.079078014846282 ], [ 80.268868543153161, 13.078173822710241 ], [ 80.268871206532367, 13.077269630510481 ], [ 80.267948838618352, 13.07726701806636 ], [ 80.267946171879842, 13.078171210079303 ], [ 80.26702380080711, 13.078168594155123 ], [ 80.267021130508468, 13.079072785917292 ] ] ] ] } },
{ "type": "Feature", "properties": { "cluster_id": 5, "year": 2022, "area_km2": 0.51 }, "geometry": { "type": "Polygon", "coordinates": [ [ [ 80.275346261014136, 13.070958469125204 ], [ 80.276268607015567, 13.070961053930668 ], [ 80.277190953215296, 13.070963635444741 ], [ 80.278113299613054, 13.070966213667424 ], [ 80.278110671211664, 13.07187040816822 ], [ 80.279033021164778, 13.071872983283727 ], [ 80.279030395923414, 13.072777177905065 ], [ 80.279027770484504, 13.073681372462723 ], [ 80.279950127351057, 13.073683944654565 ], [ 80.27994750507294, 13.074588139332526 ], [ 80.279944882597519, 13.075492333946801 ], [ 80.280867246378293, 13.075494903214038 ], [ 80.281789610356128, 13.075497469188694 ], [ 80.282711974530741, 13.075500031870767 ], [ 80.282709361934565, 13.076404226971903 ], [ 80.283631729664563, 13.076406786544435 ], [ 80.28455409759087, 13.076409342824137 ], [ 80.285476465713202, 13.076411895811013 ], [ 80.285479068232831, 13.075507700161445 ], [ 80.285481670556692, 13.074603504448193 ], [ 80.285484272684755, 13.073699308671264 ], [ 80.28548687461705, 13.072795112830658 ], [ 80.284564519928622, 13.072792560574078 ], [ 80.284567125022988, 13.071888364852372 ], [ 80.283644773888412, 13.071885809486709 ], [ 80.283647382144352, 13.07098161388414 ], [ 80.282725034563654, 13.070979055409872 ], [ 80.282727645980643, 13.070074859926679 ], [ 80.281805301953796, 13.07007229834427 ], [ 80.281807916531349, 13.069168102980688 ], [ 80.280885576058353, 13.069165538290617 ], [ 80.279963235782375, 13.069162970309614 ], [ 80.279965856876814, 13.068258775249621 ], [ 80.279043520154929, 13.068256204161667 ], [ 80.278121183630546, 13.068253629783023 ], [ 80.277198847303978, 13.068251052113689 ], [ 80.276276511175411, 13.068248471153671 ], [ 80.276273876653761, 13.069152665476338 ], [ 80.276271241933813, 13.070056859735336 ], [ 80.275348899289682, 13.070054275114801 ], [ 80.275346261014136, 13.070958469125204 ] ], [ [ 80.28364216543622, 13.072790005025606 ], [ 80.282719811140083, 13.072787446185254 ], [ 80.28272242295013, 13.071883250829398 ], [ 80.283644773888412, 13.071885809486709 ], [ 80.28364216543622, 13.072790005025606 ] ] ] } },
{ "type": "Feature", "properties": { "cluster_id": 1, "year": 2023, "area_km2": 0.43 }, "geometry": { "type": "Polygon", "coordinates": [ [ [ 80.262385068402239, 13.087197370501025 ], [ 80.262382379284588, 13.0881015606869 ], [ 80.262379689964803, 13.089005750808999 ], [ 80.262377000442854, 13.089909940867326 ], [ 80.262374310718755, 13.090814130861872 ], [ 80.263296727841166, 13.090816765887562 ], [ 80.26421914516547, 13.090819397616729 ], [ 80.265141562691454, 13.09082202604937 ], [ 80.266063980418821, 13.090824651185487 ], [ 80.266986398347342, 13.09082727302507 ], [ 80.266989071257328, 13.089923082091635 ], [ 80.267911486023905, 13.089925700447614 ], [ 80.26791415537042, 13.089021509263343 ], [ 80.268836566975054, 13.089024124136181 ], [ 80.26883923275858, 13.088119932701307 ], [ 80.268841898341748, 13.087215741202668 ], [ 80.26791949346152, 13.087213126703494 ], [ 80.267922162206119, 13.086308935327926 ], [ 80.267924830750118, 13.085404743888606 ], [ 80.267002432793916, 13.085402126467965 ], [ 80.266080035038584, 13.085399505752195 ], [ 80.266082710104584, 13.084495314623483 ], [ 80.266085384969443, 13.083591123431015 ], [ 80.266088059633191, 13.082686932174807 ], [ 80.265165672162169, 13.082684308726522 ], [ 80.265162994137611, 13.0835884997952 ], [ 80.264240603507162, 13.083585872864735 ], [ 80.264237921920184, 13.084490063681899 ], [ 80.263315528130306, 13.084487433268793 ], [ 80.263312842980397, 13.0853916238342 ], [ 80.262390446031091, 13.085388989937979 ], [ 80.26238775731774, 13.086293180251381 ], [ 80.262385068402239, 13.087197370501025 ] ] ] } },
{ "type": "Feature", "properties": { "cluster_id": 2, "year": 2023, "area_km2": 0.09 }, "geometry": { "type": "MultiPolygon", "coordinates": [ [ [ [ 80.272550079225439, 13.080896818753233 ], [ 80.272547428486135, 13.08180101144303 ], [ 80.273469814198435, 13.081803608350281 ], [ 80.273472461577427, 13.080899415474841 ], [ 80.273475108757324, 13.079995222535677 ], [ 80.272552729765422, 13.079992625999713 ], [ 80.272550079225439, 13.080896818753233 ] ] ], [ [ [ 80.27346716662035, 13.082707801161996 ], [ 80.273464518843184, 13.083611993909972 ], [ 80.274386911476, 13.083614587893843 ], [ 80.274384266860821, 13.084518780763505 ], [ 80.274381622046775, 13.085422973569425 ], [ 80.275304021600888, 13.085425564628974 ], [ 80.275301379949596, 13.08632975755633 ], [ 80.276223783063912, 13.086332345505673 ], [ 80.276226421353599, 13.085428152393369 ], [ 80.27622905944493, 13.084523959217327 ], [ 80.27530666305357, 13.084521371637873 ], [ 80.275309304307669, 13.083617178583038 ], [ 80.275311945363157, 13.082712985464472 ], [ 80.274389555892327, 13.082710394960454 ], [ 80.27439220010983, 13.081806201963332 ], [ 80.273469814198435, 13.081803608350281 ], [ 80.27346716662035, 13.082707801161996 ] ] ] ] } },
{ "type": "Feature", "properties": { "cluster_id": 3, "year": 2023, "area_km2": 0.33 }, "geometry": { "type": "Polygon", "coordinates": [ [ [ 80.27440013156928, 13.079093622589619 ], [ 80.27532250759927, 13.079096212352946 ], [ 80.275319867338126, 13.080000405726404 ], [ 80.275317226878386, 13.080904599036151 ], [ 80.27623960982686, 13.080907185875846 ], [ 80.276236972528892, 13.081811379306805 ], [ 80.276234335032569, 13.082715572674045 ], [ 80.277156724900323, 13.082718156589166 ], [ 80.277154090566526, 13.083622350077379 ], [ 80.278076483993203, 13.08362493088252 ], [ 80.278073852822416, 13.084529124491477 ], [ 80.278071221453786, 13.085433318036699 ], [ 80.278993621800794, 13.085435895915619 ], [ 80.279916022345361, 13.085438470499378 ], [ 80.279918646991277, 13.08453427658592 ], [ 80.280841044371812, 13.084536847690744 ], [ 80.281763441949451, 13.084539415500631 ], [ 80.281766059675789, 13.083635221156149 ], [ 80.281768677205292, 13.082731026747943 ], [ 80.280846286349657, 13.082728459305111 ], [ 80.280848907042952, 13.081824265016708 ], [ 80.27992651974499, 13.081821694463173 ], [ 80.279929143601578, 13.080917500294815 ], [ 80.279006759861289, 13.080914926631049 ], [ 80.279009386880659, 13.080010732582972 ], [ 80.279012013702456, 13.079106538471184 ], [ 80.278089636879685, 13.07910396188189 ], [ 80.27809226686351, 13.078199767890618 ], [ 80.277169893598128, 13.078197188192277 ], [ 80.276247520530831, 13.078194605200659 ], [ 80.276250157035506, 13.077290411514841 ], [ 80.275327787525868, 13.077287825414889 ], [ 80.275325147661846, 13.078192018915773 ], [ 80.274402774991444, 13.078189429337614 ], [ 80.27440013156928, 13.079093622589619 ] ] ] } },
{ "type": "Feature", "properties": { "cluster_id": 4, "year": 2023, "area_km2": 0.46 }, "geometry": { "type": "Polygon", "coordinates": [ [ [ 80.265200468157957, 13.070929819034511 ], [ 80.264278124555744, 13.07092719473266 ], [ 80.264275445791199, 13.071831386441938 ], [ 80.264272766825101, 13.072735578087519 ], [ 80.264270087657394, 13.073639769669397 ], [ 80.264267408288106, 13.07454396118758 ], [ 80.264264728717237, 13.075448152642048 ], [ 80.264262048944772, 13.076352344032804 ], [ 80.265184412695874, 13.076354969461173 ], [ 80.265181736080834, 13.077259160975972 ], [ 80.266104103392323, 13.0772617832991 ], [ 80.266101429935233, 13.078165974937706 ], [ 80.26702380080711, 13.078168594155123 ], [ 80.267021130508468, 13.079072785917292 ], [ 80.267943504940746, 13.079075402028527 ], [ 80.26886587957361, 13.079078014846282 ], [ 80.268868543153161, 13.078173822710241 ], [ 80.268871206532367, 13.077269630510481 ], [ 80.269793574646727, 13.077272239661593 ], [ 80.269796234466554, 13.076368047211536 ], [ 80.268873869711243, 13.076365438247006 ], [ 80.267951505156262, 13.076362825989699 ], [ 80.267029140801867, 13.076360210439624 ], [ 80.267031810497983, 13.075456018486305 ], [ 80.267034479993285, 13.074551826469277 ], [ 80.267956837630337, 13.074554441645258 ], [ 80.267959503566487, 13.073650249377479 ], [ 80.268881858045845, 13.073652861074343 ], [ 80.268879195467974, 13.074557053528938 ], [ 80.269801553505928, 13.07455966212031 ], [ 80.269804212725518, 13.073655469479148 ], [ 80.269806871745018, 13.072751276774286 ], [ 80.270729223266727, 13.072753881700674 ], [ 80.27073187872837, 13.071849688745781 ], [ 80.269809530564459, 13.071847084005729 ], [ 80.268887182600608, 13.071844475974077 ], [ 80.268889844577515, 13.070940283328408 ], [ 80.269812189183838, 13.070942891173488 ], [ 80.269814847603143, 13.070038698277562 ], [ 80.268892506354121, 13.070036090619054 ], [ 80.2679701653054, 13.070033479669416 ], [ 80.267047824457251, 13.070030865428661 ], [ 80.266125483809915, 13.070028247896783 ], [ 80.266128155457267, 13.069124055684869 ], [ 80.267050492747586, 13.069126673029471 ], [ 80.267053160837108, 13.068222480566599 ], [ 80.266130826903549, 13.068219863409272 ], [ 80.265208493171059, 13.068217242961303 ], [ 80.265205818368003, 13.069121435049389 ], [ 80.265203143363635, 13.070025627073793 ], [ 80.265200468157957, 13.070929819034511 ] ], [ [ 80.267026470904909, 13.077264402329231 ], [ 80.267948838618352, 13.07726701806636 ], [ 80.267946171879842, 13.078171210079303 ], [ 80.26702380080711, 13.078168594155123 ], [ 80.267026470904909, 13.077264402329231 ] ] ] } },
{ "type": "Feature", "properties": { "cluster_id": 5, "year": 2023, "area_km2": 0.49 }, "geometry": { "type": "Polygon", "coordinates": [ [ [ 80.278113299613054, 13.070966213667424 ], [ 80.278110671211664, 13.07187040816822 ], [ 80.279033021164778, 13.071872983283727 ], [ 80.279030395923414, 13.072777177905065 ], [ 80.279027770484504, 13.073681372462723 ], [ 80.279950127351057, 13.073683944654565 ], [ 80.27994750507294, 13.074588139332526 ], [ 80.279944882597519, 13.075492333946801 ], [ 80.280867246378293, 13.075494903214038 ], [ 80.281789610356128, 13.075497469188694 ], [ 80.282711974530741, 13.075500031870767 ], [ 80.282709361934565, 13.076404226971903 ], [ 80.283631729664563, 13.076406786544435 ], [ 80.28455409759087, 13.076409342824137 ], [ 80.285476465713202, 13.076411895811013 ], [ 80.285479068232831, 13.075507700161445 ], [ 80.285481670556692, 13.074603504448193 ], [ 80.285484272684755, 13.073699308671264 ], [ 80.28548687461705, 13.072795112830658 ], [ 80.284564519928622, 13.072792560574078 ], [ 80.284567125022988, 13.071888364852372 ], [ 80.283644773888412, 13.071885809486709 ], [ 80.283647382144352, 13.07098161388414 ], [ 80.282725034563654, 13.070979055409872 ], [ 80.282727645980643, 13.070074859926679 ], [ 80.281805301953796, 13.07007229834427 ], [ 80.280882958123726, 13.070069733470692 ], [ 80.280885576058353, 13.069165538290617 ], [ 80.279963235782375, 13.069162970309614 ], [ 80.279965856876814, 13.068258775249621 ], [ 80.279043520154929, 13.068256204161667 ], [ 80.278121183630546, 13.068253629783023 ], [ 80.277198847303978, 13.068251052113689 ], [ 80.276276511175411, 13.068248471153671 ], [ 80.276273876653761, 13.069152665476338 ], [ 80.276271241933813, 13.070056859735336 ], [ 80.275348899289682, 13.070054275114801 ], [ 80.275346261014136, 13.070958469125204 ], [ 80.276268607015567, 13.070961053930668 ], [ 80.277190953215296, 13.070963635444741 ], [ 80.278113299613054, 13.070966213667424 ] ], [ [ 80.279952749431899, 13.07277974991292 ], [ 80.280875103137674, 13.07278231862891 ], [ 80.280872484414928, 13.0736865135543 ], [ 80.279950127351057, 13.073683944654565 ], [ 80.279952749431899, 13.07277974991292 ] ], [ [ 80.28364216543622, 13.072790005025606 ], [ 80.282719811140083, 13.072787446185254 ], [ 80.28272242295013, 13.071883250829398 ], [ 80.283644773888412, 13.071885809486709 ], [ 80.28364216543622, 13.072790005025606 ] ] ] } },
{ "type": "Feature", "properties": { "cluster_id": 1, "year": 2024, "area_km2": 0.43 }, "geometry": { "type": "Polygon", "coordinates": [ [ [ 80.262385068402239, 13.087197370501025 ], [ 80.262382379284588, 13.0881015606869 ], [ 80.262379689964803, 13.089005750808999 ], [ 80.262377000442854, 13.089909940867326 ], [ 80.262374310718755, 13.090814130861872 ], [ 80.263296727841166, 13.090816765887562 ], [ 80.26421914516547, 13.090819397616729 ], [ 80.265141562691454, 13.09082202604937 ], [ 80.266063980418821, 13.090824651185487 ], [ 80.266986398347342, 13.09082727302507 ], [ 80.266989071257328, 13.089923082091635 ], [ 80.267911486023905, 13.089925700447614 ], [ 80.26791415537042, 13.089021509263343 ], [ 80.268836566975054, 13.089024124136181 ], [ 80.26883923275858, 13.088119932701307 ], [ 80.268841898341748, 13.087215741202668 ], [ 80.26791949346152, 13.087213126703494 ], [ 80.267922162206119, 13.086308935327926 ], [ 80.267924830750118, 13.085404743888606 ], [ 80.267002432793916, 13.085402126467965 ], [ 80.266080035038584, 13.085399505752195 ], [ 80.266082710104584, 13.084495314623483 ], [ 80.266085384969443, 13.083591123431015 ], [ 80.266088059633191, 13.082686932174807 ], [ 80.265165672162169, 13.082684308726522 ], [ 80.265162994137611, 13.0835884997952 ], [ 80.264240603507162, 13.083585872864735 ], [ 80.264237921920184, 13.084490063681899 ], [ 80.263315528130306, 13.084487433268793 ], [ 80.263312842980397, 13.0853916238342 ], [ 80.262390446031091, 13.085388989937979 ], [ 80.26238775731774, 13.086293180251381 ], [ 80.262385068402239, 13.087197370501025 ] ] ] } },
{ "type": "Feature", "properties": { "cluster_id": 2, "year": 2024, "area_km2": 0.08 }, "geometry": { "type": "MultiPolygon", "coordinates": [ [ [ [ 80.272547428486135, 13.08180101144303 ], [ 80.273469814198435, 13.081803608350281 ], [ 80.273472461577427, 13.080899415474841 ], [ 80.272550079225439, 13.080896818753233 ], [ 80.272547428486135, 13.08180101144303 ] ] ], [ [ [ 80.273469814198435, 13.081803608350281 ], [ 80.27346716662035, 13.082707801161996 ], [ 80.273464518843184, 13.083611993909972 ], [ 80.274386911476, 13.083614587893843 ], [ 80.274384266860821, 13.084518780763505 ], [ 80.274381622046775, 13.085422973569425 ], [ 80.275304021600888, 13.085425564628974 ], [ 80.275301379949596, 13.08632975755633 ], [ 80.276223783063912, 13.086332345505673 ], [ 80.276226421353599, 13.085428152393369 ], [ 80.27622905944493, 13.084523959217327 ], [ 80.27530666305357, 13.084521371637873 ], [ 80.275309304307669, 13.083617178583038 ], [ 80.275311945363157, 13.082712985464472 ], [ 80.274389555892327, 13.082710394960454 ], [ 80.27439220010983, 13.081806201963332 ], [ 80.273469814198435, 13.081803608350281 ] ] ] ] } },
{ "type": "Feature", "properties": { "cluster_id": 3, "year": 2024, "area_km2": 0.33 }, "geometry": { "type": "Polygon", "coordinates": [ [ [ 80.27440013156928, 13.079093622589619 ], [ 80.27532250759927, 13.079096212352946 ], [ 80.275319867338126, 13.080000405726404 ], [ 80.275317226878386, 13.080904599036151 ], [ 80.27623960982686, 13.080907185875846 ], [ 80.276236972528892, 13.081811379306805 ], [ 80.276234335032569, 13.082715572674045 ], [ 80.277156724900323, 13.082718156589166 ], [ 80.277154090566526, 13.083622350077379 ], [ 80.278076483993203, 13.08362493088252 ], [ 80.278073852822416, 13.084529124491477 ], [ 80.278071221453786, 13.085433318036699 ], [ 80.278993621800794, 13.085435895915619 ], [ 80.279916022345361, 13.085438470499378 ], [ 80.279918646991277, 13.08453427658592 ], [ 80.280841044371812, 13.084536847690744 ], [ 80.281763441949451, 13.084539415500631 ], [ 80.281766059675789, 13.083635221156149 ], [ 80.281768677205292, 13.082731026747943 ], [ 80.280846286349657, 13.082728459305111 ], [ 80.280848907042952, 13.081824265016708 ], [ 80.27992651974499, 13.081821694463173 ], [ 80.279929143601578, 13.080917500294815 ], [ 80.279006759861289, 13.080914926631049 ], [ 80.279009386880659, 13.080010732582972 ], [ 80.279012013702456, 13.079106538471184 ], [ 80.278089636879685, 13.07910396188189 ], [ 80.27809226686351, 13.078199767890618 ], [ 80.277169893598128, 13.078197188192277 ], [ 80.276247520530831, 13.078194605200659 ], [ 80.276250157035506, 13.077290411514841 ], [ 80.275327787525868, 13.077287825414889 ], [ 80.275325147661846, 13.078192018915773 ], [ 80.274402774991444, 13.078189429337614 ], [ 80.27440013156928, 13.079093622589619 ] ] ] } },
{ "type": "Feature", "properties": { "cluster_id": 4, "year": 2024, "area_km2": 0.53 }, "geometry": { "type": "Polygon", "coordinates": [ [ [ 80.265200468157957, 13.070929819034511 ], [ 80.264278124555744, 13.07092719473266 ], [ 80.264275445791199, 13.071831386441938 ], [ 80.264272766825101, 13.072735578087519 ], [ 80.264270087657394, 13.073639769669397 ], [ 80.264267408288106, 13.07454396118758 ], [ 80.264264728717237, 13.075448152642048 ], [ 80.264262048944772, 13.076352344032804 ], [ 80.265184412695874, 13.076354969461173 ], [ 80.265181736080834, 13.077259160975972 ], [ 80.266104103392323, 13.0772617832991 ], [ 80.266101429935233, 13.078165974937706 ], [ 80.26702380080711, 13.078168594155123 ], [ 80.267021130508468, 13.079072785917292 ], [ 80.267943504940746, 13.079075402028527 ], [ 80.26886587957361, 13.079078014846282 ], [ 80.268868543153161, 13.078173822710241 ], [ 80.268871206532367, 13.077269630510481 ], [ 80.269793574646727, 13.077272239661593 ], [ 80.269796234466554, 13.076368047211536 ], [ 80.268873869711243, 13.076365438247006 ], [ 80.267951505156262, 13.076362825989699 ], [ 80.267029140801867, 13.076360210439624 ], [ 80.267031810497983, 13.075456018486305 ], [ 80.267954171493585, 13.075458633849333 ], [ 80.268876532689774, 13.075461245919824 ], [ 80.268879195467974, 13.074557053528938 ], [ 80.269801553505928, 13.07455966212031 ], [ 80.269804212725518, 13.073655469479148 ], [ 80.269806871745018, 13.072751276774286 ], [ 80.270729223266727, 13.072753881700674 ], [ 80.27165157498824, 13.072756483335226 ], [ 80.2716542270921, 13.071852290194235 ], [ 80.27073187872837, 13.071849688745781 ], [ 80.269809530564459, 13.071847084005729 ], [ 80.268887182600608, 13.071844475974077 ], [ 80.268889844577515, 13.070940283328408 ], [ 80.269812189183838, 13.070942891173488 ], [ 80.269814847603143, 13.070038698277562 ], [ 80.270737189052227, 13.070041302644942 ], [ 80.270739843914455, 13.069137109499003 ], [ 80.269817505822402, 13.069134505317956 ], [ 80.268895167930395, 13.069131897846017 ], [ 80.268892506354121, 13.070036090619054 ], [ 80.2679701653054, 13.070033479669416 ], [ 80.267047824457251, 13.070030865428661 ], [ 80.267050492747586, 13.069126673029471 ], [ 80.267972830238719, 13.069129287083188 ], [ 80.267975494971466, 13.068225094433277 ], [ 80.267053160837108, 13.068222480566599 ], [ 80.266130826903549, 13.068219863409272 ], [ 80.265208493171059, 13.068217242961303 ], [ 80.265205818368003, 13.069121435049389 ], [ 80.265203143363635, 13.070025627073793 ], [ 80.265200468157957, 13.070929819034511 ] ], [ [ 80.267026470904909, 13.077264402329231 ], [ 80.267948838618352, 13.07726701806636 ], [ 80.267946171879842, 13.078171210079303 ], [ 80.26702380080711, 13.078168594155123 ], [ 80.267026470904909, 13.077264402329231 ] ], [ [ 80.267956837630337, 13.074554441645258 ], [ 80.267959503566487, 13.073650249377479 ], [ 80.268881858045845, 13.073652861074343 ], [ 80.268879195467974, 13.074557053528938 ], [ 80.267956837630337, 13.074554441645258 ] ] ] } },
{ "type": "Feature", "properties": { "cluster_id": 5, "year": 2024, "area_km2": 0.04 }, "geometry": { "type": "Polygon", "coordinates": [ [ [ 80.277180424991144, 13.074580412328027 ], [ 80.277177792439986, 13.075484606389633 ], [ 80.277175159690756, 13.076388800387548 ], [ 80.277172526743485, 13.077292994321763 ], [ 80.27809489664952, 13.077295573835643 ], [ 80.278097526237715, 13.076391379716968 ], [ 80.279019892982475, 13.076393955753581 ], [ 80.279022519014035, 13.075489761386986 ], [ 80.278100155628096, 13.075487185534595 ], [ 80.278102784820689, 13.07458299128853 ], [ 80.277180424991144, 13.074580412328027 ] ] ] } },
{ "type": "Feature", "properties": { "cluster_id": 6, "year": 2024, "area_km2": 0.49 }, "geometry": { "type": "Polygon", "coordinates": [ [ [ 80.278113299613054, 13.070966213667424 ], [ 80.278110671211664, 13.07187040816822 ], [ 80.279033021164778, 13.071872983283727 ], [ 80.279030395923414, 13.072777177905065 ], [ 80.279027770484504, 13.073681372462723 ], [ 80.279950127351057, 13.073683944654565 ], [ 80.27994750507294, 13.074588139332526 ], [ 80.279944882597519, 13.075492333946801 ], [ 80.280867246378293, 13.075494903214038 ], [ 80.281789610356128, 13.075497469188694 ], [ 80.282711974530741, 13.075500031870767 ], [ 80.282709361934565, 13.076404226971903 ], [ 80.283631729664563, 13.076406786544435 ], [ 80.28455409759087, 13.076409342824137 ], [ 80.285476465713202, 13.076411895811013 ], [ 80.285479068232831, 13.075507700161445 ], [ 80.285481670556692, 13.074603504448193 ], [ 80.285484272684755, 13.073699308671264 ], [ 80.28548687461705, 13.072795112830658 ], [ 80.284564519928622, 13.072792560574078 ], [ 80.284567125022988, 13.071888364852372 ], [ 80.283644773888412, 13.071885809486709 ], [ 80.283647382144352, 13.07098161388414 ], [ 80.282725034563654, 13.070979055409872 ], [ 80.282727645980643, 13.070074859926679 ], [ 80.281805301953796, 13.07007229834427 ], [ 80.280882958123726, 13.070069733470692 ], [ 80.280885576058353, 13.069165538290617 ], [ 80.279963235782375, 13.069162970309614 ], [ 80.279965856876814, 13.068258775249621 ], [ 80.279043520154929, 13.068256204161667 ], [ 80.278121183630546, 13.068253629783023 ], [ 80.277198847303978, 13.068251052113689 ], [ 80.276276511175411, 13.068248471153671 ], [ 80.276273876653761, 13.069152665476338 ], [ 80.276271241933813, 13.070056859735336 ], [ 80.275348899289682, 13.070054275114801 ], [ 80.275346261014136, 13.070958469125204 ], [ 80.276268607015567, 13.070961053930668 ], [ 80.277190953215296, 13.070963635444741 ], [ 80.278113299613054, 13.070966213667424 ] ], [ [ 80.279952749431899, 13.07277974991292 ], [ 80.280875103137674, 13.07278231862891 ], [ 80.280872484414928, 13.0736865135543 ], [ 80.279950127351057, 13.073683944654565 ], [ 80.279952749431899, 13.07277974991292 ] ], [ [ 80.28364216543622, 13.072790005025606 ], [ 80.282719811140083, 13.072787446185254 ], [ 80.28272242295013, 13.071883250829398 ], [ 80.283644773888412, 13.071885809486709 ], [ 80.28364216543622, 13.072790005025606 ] ] ] } },
{ "type": "Feature", "properties": { "cluster_id": 1, "year": 2025, "area_km2": 0.43 }, "geometry": { "type": "Polygon", "coordinates": [ [ [ 80.262385068402239, 13.087197370501025 ], [ 80.262382379284588, 13.0881015606869 ], [ 80.262379689964803, 13.089005750808999 ], [ 80.262377000442854, 13.089909940867326 ], [ 80.262374310718755, 13.090814130861872 ], [ 80.263296727841166, 13.090816765887562 ], [ 80.26421914516547, 13.090819397616729 ], [ 80.265141562691454, 13.09082202604937 ], [ 80.266063980418821, 13.090824651185487 ], [ 80.266986398347342, 13.09082727302507 ], [ 80.266989071257328, 13.089923082091635 ], [ 80.267911486023905, 13.089925700447614 ], [ 80.26791415537042, 13.089021509263343 ], [ 80.268836566975054, 13.089024124136181 ], [ 80.26883923275858, 13.088119932701307 ], [ 80.268841898341748, 13.087215741202668 ], [ 80.26791949346152, 13.087213126703494 ], [ 80.267922162206119, 13.086308935327926 ], [ 80.267924830750118, 13.085404743888606 ], [ 80.267002432793916, 13.085402126467965 ], [ 80.266080035038584, 13.085399505752195 ], [ 80.266082710104584, 13.084495314623483 ], [ 80.266085384969443, 13.083591123431015 ], [ 80.266088059633191, 13.082686932174807 ], [ 80.265165672162169, 13.082684308726522 ], [ 80.265162994137611, 13.0835884997952 ], [ 80.264240603507162, 13.083585872864735 ], [ 80.264237921920184, 13.084490063681899 ], [ 80.263315528130306, 13.084487433268793 ], [ 80.263312842980397, 13.0853916238342 ], [ 80.262390446031091, 13.085388989937979 ], [ 80.26238775731774, 13.086293180251381 ], [ 80.262385068402239, 13.087197370501025 ] ] ] } },
{ "type": "Feature", "properties": { "cluster_id": 2, "year": 2025, "area_km2": 0.08 }, "geometry": { "type": "MultiPolygon", "coordinates": [ [ [ [ 80.272547428486135, 13.08180101144303 ], [ 80.273469814198435, 13.081803608350281 ], [ 80.273472461577427, 13.080899415474841 ], [ 80.272550079225439, 13.080896818753233 ], [ 80.272547428486135, 13.08180101144303 ] ] ], [ [ [ 80.273469814198435, 13.081803608350281 ], [ 80.27346716662035, 13.082707801161996 ], [ 80.273464518843184, 13.083611993909972 ], [ 80.274386911476, 13.083614587893843 ], [ 80.274384266860821, 13.084518780763505 ], [ 80.274381622046775, 13.085422973569425 ], [ 80.275304021600888, 13.085425564628974 ], [ 80.275301379949596, 13.08632975755633 ], [ 80.276223783063912, 13.086332345505673 ], [ 80.276226421353599, 13.085428152393369 ], [ 80.27622905944493, 13.084523959217327 ], [ 80.27530666305357, 13.084521371637873 ], [ 80.275309304307669, 13.083617178583038 ], [ 80.275311945363157, 13.082712985464472 ], [ 80.274389555892327, 13.082710394960454 ], [ 80.27439220010983, 13.081806201963332 ], [ 80.273469814198435, 13.081803608350281 ] ] ] ] } },
{ "type": "Feature", "properties": { "cluster_id": 3, "year": 2025, "area_km2": 0.4 }, "geometry": { "type": "Polygon", "coordinates": [ [ [ 80.277172526743485, 13.077292994321763 ], [ 80.277169893598128, 13.078197188192277 ], [ 80.276247520530831, 13.078194605200659 ], [ 80.276250157035506, 13.077290411514841 ], [ 80.276252793341868, 13.076386217765323 ], [ 80.275330427191292, 13.0763836318503 ], [ 80.275327787525868, 13.077287825414889 ], [ 80.274405418214769, 13.077285236021899 ], [ 80.274402774991444, 13.078189429337614 ], [ 80.27440013156928, 13.079093622589619 ], [ 80.27532250759927, 13.079096212352946 ], [ 80.275319867338126, 13.080000405726404 ], [ 80.275317226878386, 13.080904599036151 ], [ 80.27623960982686, 13.080907185875846 ], [ 80.276236972528892, 13.081811379306805 ], [ 80.276234335032569, 13.082715572674045 ], [ 80.277156724900323, 13.082718156589166 ], [ 80.277154090566526, 13.083622350077379 ], [ 80.278076483993203, 13.08362493088252 ], [ 80.278073852822416, 13.084529124491477 ], [ 80.278071221453786, 13.085433318036699 ], [ 80.278993621800794, 13.085435895915619 ], [ 80.279916022345361, 13.085438470499378 ], [ 80.279918646991277, 13.08453427658592 ], [ 80.280841044371812, 13.084536847690744 ], [ 80.281763441949451, 13.084539415500631 ], [ 80.281766059675789, 13.083635221156149 ], [ 80.281768677205292, 13.082731026747943 ], [ 80.280846286349657, 13.082728459305111 ], [ 80.280848907042952, 13.081824265016708 ], [ 80.27992651974499, 13.081821694463173 ], [ 80.279929143601578, 13.080917500294815 ], [ 80.279006759861289, 13.080914926631049 ], [ 80.279009386880659, 13.080010732582972 ], [ 80.279012013702456, 13.079106538471184 ], [ 80.278089636879685, 13.07910396188189 ], [ 80.27809226686351, 13.078199767890618 ], [ 80.27809489664952, 13.077295573835643 ], [ 80.278097526237715, 13.076391379716968 ], [ 80.279019892982475, 13.076393955753581 ], [ 80.279022519014035, 13.075489761386986 ], [ 80.278100155628096, 13.075487185534595 ], [ 80.278102784820689, 13.07458299128853 ], [ 80.277180424991144, 13.074580412328027 ], [ 80.277177792439986, 13.075484606389633 ], [ 80.277175159690756, 13.076388800387548 ], [ 80.277172526743485, 13.077292994321763 ] ] ] } },
{ "type": "Feature", "properties": { "cluster_id": 4, "year": 2025, "area_km2": 0.57 }, "geometry": { "type": "MultiPolygon", "coordinates": [ [ [ [ 80.265200468157957, 13.070929819034511 ], [ 80.264278124555744, 13.07092719473266 ], [ 80.264275445791199, 13.071831386441938 ], [ 80.264272766825101, 13.072735578087519 ], [ 80.264270087657394, 13.073639769669397 ], [ 80.264267408288106, 13.07454396118758 ], [ 80.264264728717237, 13.075448152642048 ], [ 80.264262048944772, 13.076352344032804 ], [ 80.265184412695874, 13.076354969461173 ], [ 80.265181736080834, 13.077259160975972 ], [ 80.266104103392323, 13.0772617832991 ], [ 80.266101429935233, 13.078165974937706 ], [ 80.26702380080711, 13.078168594155123 ], [ 80.267026470904909, 13.077264402329231 ], [ 80.267948838618352, 13.07726701806636 ], [ 80.267951505156262, 13.076362825989699 ], [ 80.268873869711243, 13.076365438247006 ], [ 80.268876532689774, 13.075461245919824 ], [ 80.269798894086279, 13.075463854697777 ], [ 80.269801553505928, 13.07455966212031 ], [ 80.269804212725518, 13.073655469479148 ], [ 80.269806871745018, 13.072751276774286 ], [ 80.270729223266727, 13.072753881700674 ], [ 80.27165157498824, 13.072756483335226 ], [ 80.2716542270921, 13.071852290194235 ], [ 80.27073187872837, 13.071849688745781 ], [ 80.269809530564459, 13.071847084005729 ], [ 80.268887182600608, 13.071844475974077 ], [ 80.268889844577515, 13.070940283328408 ], [ 80.269812189183838, 13.070942891173488 ], [ 80.269814847603143, 13.070038698277562 ], [ 80.270737189052227, 13.070041302644942 ], [ 80.271659530701129, 13.07004390372119 ], [ 80.271662182206313, 13.069139710389152 ], [ 80.270739843914455, 13.069137109499003 ], [ 80.269817505822402, 13.069134505317956 ], [ 80.269820163841601, 13.068230312294675 ], [ 80.268897829306383, 13.068227705009303 ], [ 80.268895167930395, 13.069131897846017 ], [ 80.268892506354121, 13.070036090619054 ], [ 80.2679701653054, 13.070033479669416 ], [ 80.267047824457251, 13.070030865428661 ], [ 80.267050492747586, 13.069126673029471 ], [ 80.267972830238719, 13.069129287083188 ], [ 80.267975494971466, 13.068225094433277 ], [ 80.267053160837108, 13.068222480566599 ], [ 80.266130826903549, 13.068219863409272 ], [ 80.265208493171059, 13.068217242961303 ], [ 80.265205818368003, 13.069121435049389 ], [ 80.265203143363635, 13.070025627073793 ], [ 80.265200468157957, 13.070929819034511 ] ], [ [ 80.267029140801867, 13.076360210439624 ], [ 80.267031810497983, 13.075456018486305 ], [ 80.267954171493585, 13.075458633849333 ], [ 80.267951505156262, 13.076362825989699 ], [ 80.267029140801867, 13.076360210439624 ] ], [ [ 80.268881858045845, 13.073652861074343 ], [ 80.268879195467974, 13.074557053528938 ], [ 80.267956837630337, 13.074554441645258 ], [ 80.267959503566487, 13.073650249377479 ], [ 80.268881858045845, 13.073652861074343 ] ] ], [ [ [ 80.267021130508468, 13.079072785917292 ], [ 80.267943504940746, 13.079075402028527 ], [ 80.26886587957361, 13.079078014846282 ], [ 80.268868543153161, 13.078173822710241 ], [ 80.268871206532367, 13.077269630510481 ], [ 80.267948838618352, 13.07726701806636 ], [ 80.267946171879842, 13.078171210079303 ], [ 80.26702380080711, 13.078168594155123 ], [ 80.267021130508468, 13.079072785917292 ] ] ], [ [ [ 80.2716542270921, 13.071852290194235 ], [ 80.272576575655378, 13.071854888351073 ], [ 80.272579224202119, 13.070950694960532 ], [ 80.271656878996396, 13.070948096989554 ], [ 80.2716542270921, 13.071852290194235 ] ] ], [ [ [ 80.269793574646727, 13.077272239661593 ], [ 80.269796234466554, 13.076368047211536 ], [ 80.268873869711243, 13.076365438247006 ], [ 80.268871206532367, 13.077269630510481 ], [ 80.269793574646727, 13.077272239661593 ] ] ] ] } },
{ "type": "Feature", "properties": { "cluster_id": 5, "year": 2025, "area_km2": 0.48 }, "geometry": { "type": "Polygon", "coordinates": [ [ [ 80.275346261014136, 13.070958469125204 ], [ 80.276268607015567, 13.070961053930668 ], [ 80.277190953215296, 13.070963635444741 ], [ 80.278113299613054, 13.070966213667424 ], [ 80.278110671211664, 13.07187040816822 ], [ 80.279033021164778, 13.071872983283727 ], [ 80.279030395923414, 13.072777177905065 ], [ 80.279027770484504, 13.073681372462723 ], [ 80.279950127351057, 13.073683944654565 ], [ 80.27994750507294, 13.074588139332526 ], [ 80.279944882597519, 13.075492333946801 ], [ 80.280867246378293, 13.075494903214038 ], [ 80.281789610356128, 13.075497469188694 ], [ 80.282711974530741, 13.075500031870767 ], [ 80.282709361934565, 13.076404226971903 ], [ 80.283631729664563, 13.076406786544435 ], [ 80.28455409759087, 13.076409342824137 ], [ 80.285476465713202, 13.076411895811013 ], [ 80.285479068232831, 13.075507700161445 ], [ 80.285481670556692, 13.074603504448193 ], [ 80.285484272684755, 13.073699308671264 ], [ 80.28548687461705, 13.072795112830658 ], [ 80.284564519928622, 13.072792560574078 ], [ 80.284567125022988, 13.071888364852372 ], [ 80.283644773888412, 13.071885809486709 ], [ 80.283647382144352, 13.07098161388414 ], [ 80.282725034563654, 13.070979055409872 ], [ 80.282727645980643, 13.070074859926679 ], [ 80.281805301953796, 13.07007229834427 ], [ 80.280882958123726, 13.070069733470692 ], [ 80.280885576058353, 13.069165538290617 ], [ 80.279963235782375, 13.069162970309614 ], [ 80.279965856876814, 13.068258775249621 ], [ 80.279043520154929, 13.068256204161667 ], [ 80.278121183630546, 13.068253629783023 ], [ 80.277198847303978, 13.068251052113689 ], [ 80.276276511175411, 13.068248471153671 ], [ 80.276273876653761, 13.069152665476338 ], [ 80.276271241933813, 13.070056859735336 ], [ 80.275348899289682, 13.070054275114801 ], [ 80.275346261014136, 13.070958469125204 ] ], [ [ 80.279952749431899, 13.07277974991292 ], [ 80.280875103137674, 13.07278231862891 ], [ 80.280872484414928, 13.0736865135543 ], [ 80.279950127351057, 13.073683944654565 ], [ 80.279952749431899, 13.07277974991292 ] ], [ [ 80.28364216543622, 13.072790005025606 ], [ 80.282719811140083, 13.072787446185254 ], [ 80.28272242295013, 13.071883250829398 ], [ 80.283644773888412, 13.071885809486709 ], [ 80.28364216543622, 13.072790005025606 ] ], [ [ 80.280880339992066, 13.070973928587099 ], [ 80.279957993001702, 13.070971360238607 ], [ 80.27996061449069, 13.070067165305945 ], [ 80.280882958123726, 13.070069733470692 ], [ 80.280880339992066, 13.070973928587099 ] ] ] } },
{ "type": "Feature", "properties": { "cluster_id": 1, "year": 2026, "area_km2": 0.42 }, "geometry": { "type": "Polygon", "coordinates": [ [ [ 80.262385068402239, 13.087197370501025 ], [ 80.262382379284588, 13.0881015606869 ], [ 80.262379689964803, 13.089005750808999 ], [ 80.262377000442854, 13.089909940867326 ], [ 80.262374310718755, 13.090814130861872 ], [ 80.263296727841166, 13.090816765887562 ], [ 80.26421914516547, 13.090819397616729 ], [ 80.265141562691454, 13.09082202604937 ], [ 80.266063980418821, 13.090824651185487 ], [ 80.266986398347342, 13.09082727302507 ], [ 80.266989071257328, 13.089923082091635 ], [ 80.267911486023905, 13.089925700447614 ], [ 80.26791415537042, 13.089021509263343 ], [ 80.268836566975054, 13.089024124136181 ], [ 80.26883923275858, 13.088119932701307 ], [ 80.268841898341748, 13.087215741202668 ], [ 80.26791949346152, 13.087213126703494 ], [ 80.267922162206119, 13.086308935327926 ], [ 80.267924830750118, 13.085404743888606 ], [ 80.267002432793916, 13.085402126467965 ], [ 80.266080035038584, 13.085399505752195 ], [ 80.266082710104584, 13.084495314623483 ], [ 80.266085384969443, 13.083591123431015 ], [ 80.266088059633191, 13.082686932174807 ], [ 80.265165672162169, 13.082684308726522 ], [ 80.265162994137611, 13.0835884997952 ], [ 80.264240603507162, 13.083585872864735 ], [ 80.264237921920184, 13.084490063681899 ], [ 80.263315528130306, 13.084487433268793 ], [ 80.263312842980397, 13.0853916238342 ], [ 80.262390446031091, 13.085388989937979 ], [ 80.26238775731774, 13.086293180251381 ], [ 80.262385068402239, 13.087197370501025 ] ], [ [ 80.266077359771458, 13.086303696817154 ], [ 80.265154958855703, 13.086301072618733 ], [ 80.265157637484393, 13.085396881741312 ], [ 80.266080035038584, 13.085399505752195 ], [ 80.266077359771458, 13.086303696817154 ] ] ] } },
{ "type": "Feature", "properties": { "cluster_id": 2, "year": 2026, "area_km2": 0.08 }, "geometry": { "type": "MultiPolygon", "coordinates": [ [ [ [ 80.272547428486135, 13.08180101144303 ], [ 80.273469814198435, 13.081803608350281 ], [ 80.273472461577427, 13.080899415474841 ], [ 80.272550079225439, 13.080896818753233 ], [ 80.272547428486135, 13.08180101144303 ] ] ], [ [ [ 80.273469814198435, 13.081803608350281 ], [ 80.27346716662035, 13.082707801161996 ], [ 80.273464518843184, 13.083611993909972 ], [ 80.274386911476, 13.083614587893843 ], [ 80.274384266860821, 13.084518780763505 ], [ 80.274381622046775, 13.085422973569425 ], [ 80.275304021600888, 13.085425564628974 ], [ 80.275301379949596, 13.08632975755633 ], [ 80.276223783063912, 13.086332345505673 ], [ 80.276226421353599, 13.085428152393369 ], [ 80.27622905944493, 13.084523959217327 ], [ 80.27530666305357, 13.084521371637873 ], [ 80.275309304307669, 13.083617178583038 ], [ 80.275311945363157, 13.082712985464472 ], [ 80.274389555892327, 13.082710394960454 ], [ 80.27439220010983, 13.081806201963332 ], [ 80.273469814198435, 13.081803608350281 ] ] ] ] } },
{ "type": "Feature", "properties": { "cluster_id": 3, "year": 2026, "area_km2": 0.42 }, "geometry": { "type": "Polygon", "coordinates": [ [ [ 80.274402774991444, 13.078189429337614 ], [ 80.27440013156928, 13.079093622589619 ], [ 80.27532250759927, 13.079096212352946 ], [ 80.275319867338126, 13.080000405726404 ], [ 80.275317226878386, 13.080904599036151 ], [ 80.27623960982686, 13.080907185875846 ], [ 80.276236972528892, 13.081811379306805 ], [ 80.276234335032569, 13.082715572674045 ], [ 80.277156724900323, 13.082718156589166 ], [ 80.277154090566526, 13.083622350077379 ], [ 80.278076483993203, 13.08362493088252 ], [ 80.278073852822416, 13.084529124491477 ], [ 80.278071221453786, 13.085433318036699 ], [ 80.278993621800794, 13.085435895915619 ], [ 80.279916022345361, 13.085438470499378 ], [ 80.279918646991277, 13.08453427658592 ], [ 80.280841044371812, 13.084536847690744 ], [ 80.281763441949451, 13.084539415500631 ], [ 80.281766059675789, 13.083635221156149 ], [ 80.281768677205292, 13.082731026747943 ], [ 80.280846286349657, 13.082728459305111 ], [ 80.280848907042952, 13.081824265016708 ], [ 80.27992651974499, 13.081821694463173 ], [ 80.279929143601578, 13.080917500294815 ], [ 80.279006759861289, 13.080914926631049 ], [ 80.279009386880659, 13.080010732582972 ], [ 80.279012013702456, 13.079106538471184 ], [ 80.278089636879685, 13.07910396188189 ], [ 80.27809226686351, 13.078199767890618 ], [ 80.27809489664952, 13.077295573835643 ], [ 80.278097526237715, 13.076391379716968 ], [ 80.279019892982475, 13.076393955753581 ], [ 80.279022519014035, 13.075489761386986 ], [ 80.278100155628096, 13.075487185534595 ], [ 80.278102784820689, 13.07458299128853 ], [ 80.277180424991144, 13.074580412328027 ], [ 80.277177792439986, 13.075484606389633 ], [ 80.276255429449918, 13.075482023952107 ], [ 80.275333066658163, 13.075479438222013 ], [ 80.275330427191292, 13.0763836318503 ], [ 80.275327787525868, 13.077287825414889 ], [ 80.274405418214769, 13.077285236021899 ], [ 80.274402774991444, 13.078189429337614 ] ], [ [ 80.276250157035506, 13.077290411514841 ], [ 80.276252793341868, 13.076386217765323 ], [ 80.277175159690756, 13.076388800387548 ], [ 80.277172526743485, 13.077292994321763 ], [ 80.277169893598128, 13.078197188192277 ], [ 80.276247520530831, 13.078194605200659 ], [ 80.276250157035506, 13.077290411514841 ] ] ] } },
{ "type": "Feature", "properties": { "cluster_id": 4, "year": 2026, "area_km2": 0.63 }, "geometry": { "type": "MultiPolygon", "coordinates": [ [ [ [ 80.265200468157957, 13.070929819034511 ], [ 80.264278124555744, 13.07092719473266 ], [ 80.264275445791199, 13.071831386441938 ], [ 80.264272766825101, 13.072735578087519 ], [ 80.264270087657394, 13.073639769669397 ], [ 80.264267408288106, 13.07454396118758 ], [ 80.264264728717237, 13.075448152642048 ], [ 80.26518708910956, 13.07545077788266 ], [ 80.265184412695874, 13.076354969461173 ], [ 80.265181736080834, 13.077259160975972 ], [ 80.266104103392323, 13.0772617832991 ], [ 80.266101429935233, 13.078165974937706 ], [ 80.26702380080711, 13.078168594155123 ], [ 80.267026470904909, 13.077264402329231 ], [ 80.267948838618352, 13.07726701806636 ], [ 80.267951505156262, 13.076362825989699 ], [ 80.268873869711243, 13.076365438247006 ], [ 80.268876532689774, 13.075461245919824 ], [ 80.269798894086279, 13.075463854697777 ], [ 80.269801553505928, 13.07455966212031 ], [ 80.269804212725518, 13.073655469479148 ], [ 80.269806871745018, 13.072751276774286 ], [ 80.270729223266727, 13.072753881700674 ], [ 80.270726567605266, 13.073658074591874 ], [ 80.271648922684832, 13.073660676412532 ], [ 80.27165157498824, 13.072756483335226 ], [ 80.2716542270921, 13.071852290194235 ], [ 80.272576575655378, 13.071854888351073 ], [ 80.272579224202119, 13.070950694960532 ], [ 80.273501569607163, 13.07095328964013 ], [ 80.27350421459731, 13.070049096000279 ], [ 80.273506859388405, 13.069144902296747 ], [ 80.272584520697706, 13.0691423079884 ], [ 80.271662182206313, 13.069139710389152 ], [ 80.270739843914455, 13.069137109499003 ], [ 80.269817505822402, 13.069134505317956 ], [ 80.269820163841601, 13.068230312294675 ], [ 80.268897829306383, 13.068227705009303 ], [ 80.268895167930395, 13.069131897846017 ], [ 80.268892506354121, 13.070036090619054 ], [ 80.2679701653054, 13.070033479669416 ], [ 80.267972830238719, 13.069129287083188 ], [ 80.267975494971466, 13.068225094433277 ], [ 80.267053160837108, 13.068222480566599 ], [ 80.266130826903549, 13.068219863409272 ], [ 80.265208493171059, 13.068217242961303 ], [ 80.265205818368003, 13.069121435049389 ], [ 80.265203143363635, 13.070025627073793 ], [ 80.265200468157957, 13.070929819034511 ] ], [ [ 80.267029140801867, 13.076360210439624 ], [ 80.267031810497983, 13.075456018486305 ], [ 80.267954171493585, 13.075458633849333 ], [ 80.267951505156262, 13.076362825989699 ], [ 80.267029140801867, 13.076360210439624 ] ], [ [ 80.27073187872837, 13.071849688745781 ], [ 80.269809530564459, 13.071847084005729 ], [ 80.268887182600608, 13.071844475974077 ], [ 80.268889844577515, 13.070940283328408 ], [ 80.269812189183838, 13.070942891173488 ], [ 80.269814847603143, 13.070038698277562 ], [ 80.270737189052227, 13.070041302644942 ], [ 80.271659530701129, 13.07004390372119 ], [ 80.271656878996396, 13.070948096989554 ], [ 80.2716542270921, 13.071852290194235 ], [ 80.27073187872837, 13.071849688745781 ] ], [ [ 80.268881858045845, 13.073652861074343 ], [ 80.268879195467974, 13.074557053528938 ], [ 80.267956837630337, 13.074554441645258 ], [ 80.267959503566487, 13.073650249377479 ], [ 80.268881858045845, 13.073652861074343 ] ] ], [ [ [ 80.267943504940746, 13.079075402028527 ], [ 80.26886587957361, 13.079078014846282 ], [ 80.268868543153161, 13.078173822710241 ], [ 80.268871206532367, 13.077269630510481 ], [ 80.267948838618352, 13.07726701806636 ], [ 80.267946171879842, 13.078171210079303 ], [ 80.26702380080711, 13.078168594155123 ], [ 80.267021130508468, 13.079072785917292 ], [ 80.267943504940746, 13.079075402028527 ] ] ], [ [ [ 80.273506859388405, 13.069144902296747 ], [ 80.274429198278156, 13.06914749331419 ], [ 80.274431839513426, 13.068243299361599 ], [ 80.273509503980463, 13.068240708529551 ], [ 80.273506859388405, 13.069144902296747 ] ] ], [ [ [ 80.269793574646727, 13.077272239661593 ], [ 80.269796234466554, 13.076368047211536 ], [ 80.268873869711243, 13.076365438247006 ], [ 80.268871206532367, 13.077269630510481 ], [ 80.269793574646727, 13.077272239661593 ] ] ] ] } },
{ "type": "Feature", "properties": { "cluster_id": 5, "year": 2026, "area_km2": 0.47 }, "geometry": { "type": "Polygon", "coordinates": [ [ [ 80.275346261014136, 13.070958469125204 ], [ 80.276268607015567, 13.070961053930668 ], [ 80.277190953215296, 13.070963635444741 ], [ 80.278113299613054, 13.070966213667424 ], [ 80.278110671211664, 13.07187040816822 ], [ 80.279033021164778, 13.071872983283727 ], [ 80.279030395923414, 13.072777177905065 ], [ 80.279027770484504, 13.073681372462723 ], [ 80.279950127351057, 13.073683944654565 ], [ 80.27994750507294, 13.074588139332526 ], [ 80.279944882597519, 13.075492333946801 ], [ 80.280867246378293, 13.075494903214038 ], [ 80.281789610356128, 13.075497469188694 ], [ 80.282711974530741, 13.075500031870767 ], [ 80.282709361934565, 13.076404226971903 ], [ 80.283631729664563, 13.076406786544435 ], [ 80.28455409759087, 13.076409342824137 ], [ 80.285476465713202, 13.076411895811013 ], [ 80.285479068232831, 13.075507700161445 ], [ 80.285481670556692, 13.074603504448193 ], [ 80.285484272684755, 13.073699308671264 ], [ 80.28548687461705, 13.072795112830658 ], [ 80.284564519928622, 13.072792560574078 ], [ 80.284567125022988, 13.071888364852372 ], [ 80.283644773888412, 13.071885809486709 ], [ 80.283647382144352, 13.07098161388414 ], [ 80.282725034563654, 13.070979055409872 ], [ 80.282727645980643, 13.070074859926679 ], [ 80.281805301953796, 13.07007229834427 ], [ 80.280882958123726, 13.070069733470692 ], [ 80.280885576058353, 13.069165538290617 ], [ 80.279963235782375, 13.069162970309614 ], [ 80.279965856876814, 13.068258775249621 ], [ 80.279043520154929, 13.068256204161667 ], [ 80.278121183630546, 13.068253629783023 ], [ 80.277198847303978, 13.068251052113689 ], [ 80.276276511175411, 13.068248471153671 ], [ 80.276273876653761, 13.069152665476338 ], [ 80.276271241933813, 13.070056859735336 ], [ 80.275348899289682, 13.070054275114801 ], [ 80.275346261014136, 13.070958469125204 ] ], [ [ 80.279952749431899, 13.07277974991292 ], [ 80.280875103137674, 13.07278231862891 ], [ 80.280872484414928, 13.0736865135543 ], [ 80.279950127351057, 13.073683944654565 ], [ 80.279952749431899, 13.07277974991292 ] ], [ [ 80.280877721663387, 13.071878123639838 ], [ 80.28180007220837, 13.071880688880441 ], [ 80.281797457040497, 13.072784884053021 ], [ 80.280875103137674, 13.07278231862891 ], [ 80.280877721663387, 13.071878123639838 ] ], [ [ 80.28364216543622, 13.072790005025606 ], [ 80.282719811140083, 13.072787446185254 ], [ 80.28272242295013, 13.071883250829398 ], [ 80.283644773888412, 13.071885809486709 ], [ 80.28364216543622, 13.072790005025606 ] ], [ [ 80.280880339992066, 13.070973928587099 ], [ 80.279957993001702, 13.070971360238607 ], [ 80.27996061449069, 13.070067165305945 ], [ 80.280882958123726, 13.070069733470692 ], [ 80.280880339992066, 13.070973928587099 ] ] ] } }
]
}
