{
"type": "FeatureCollection",
"name": "emerging_zones",
"crs": { "type": "name", "properties": { "name": "urn:ogc:def:crs:OGC:1.3:CRS84" } },
"features": [
{ "type": "Feature", "properties": { "cell_id": 652, "row": 20, "col": 12, "class_2019": "open_vegetated", "conf_2019": 1.0, "imi_2019": 0.174, "informal_prob_2019": 0.0, "class_2020": "open_vegetated", "conf_2020": 0.992, "imi_2020": 0.182, "informal_prob_2020": 0.0, "class_2021": "open_vegetated", "conf_2021": 0.999, "imi_2021": 0.189, "informal_prob_2021": 0.0, "class_2022": "informal", "conf_2022": 0.976, "imi_2022": 0.481, "informal_prob_2022": 0.976, "class_2023": "informal", "conf_2023": 0.966, "imi_2023": 0.468, "informal_prob_2023": 0.966, "class_2024": "informal", "conf_2024": 0.978, "imi_2024": 0.478, "informal_prob_2024": 0.978, "class_2025": "informal", "conf_2025": 0.974, "imi_2025": 0.485, "informal_prob_2025": 0.974, "class_2026": "informal", "conf_2026": 0.969, "imi_2026": 0.489, "informal_prob_2026": 0.969, "trajectory": "new_informal", "cluster_last": 4, "emerging_score": 0.72464077701169138, "emerging_zone": 1, "building_count": 98.0, "building_density": 0.27658799721647515, "road_density": 0.0, "ndvi": 0.23568805635906756, "ndbi": 0.13584924475289881, "imi": 0.48928595371029682, "informal_probability": 0.96891170154709416, "confidence": 0.96891170154709416, "explanation": "road structure: 1.00; built-up intensity: 0.85; impervious surface: 0.43; building irregularity: 0.40; building density: 0.25" }, "geometry": { "type": "Polygon", "coordinates": [ [ [ 80.267946171879842, 13.078171210079303 ], [ 80.267943504940746, 13.079075402028527 ], [ 80.267021130508468, 13.079072785917292 ], [ 80.26702380080711, 13.078168594155123 ], [ 80.267946171879842, 13.078171210079303 ] ] ] } },
{ "type": "Feature", "properties": { "cell_id": 657, "row": 20, "col": 17, "class_2019": "open_vegetated", "conf_2019": 0.996, "imi_2019": 0.142, "informal_prob_2019": 0.0, "class_2020": "open_vegetated", "conf_2020": 0.997, "imi_2020": 0.151, "informal_prob_2020": 0.0, "class_2021": "open_vegetated", "conf_2021": 0.997, "imi_2021": 0.156, "informal_prob_2021": 0.0, "class_2022": "open_vegetated", "conf_2022": 0.998, "imi_2022": 0.156, "informal_prob_2022": 0.0, "class_2023": "open_vegetated", "conf_2023": 0.996, "imi_2023": 0.151, "informal_prob_2023": 0.0, "class_2024": "informal", "conf_2024": 0.998, "imi_2024": 0.415, "informal_prob_2024": 0.998, "class_2025": "commercial", "conf_2025": 0.572, "imi_2025": 0.489, "informal_prob_2025": 0.012, "class_2026": "commercial", "conf_2026": 0.568, "imi_2026": 0.494, "informal_prob_2026": 0.012, "trajectory": "other", "cluster_last": 0, "emerging_score": 0.75514647213602526, "emerging_zone": 1, "building_count": 3.0, "building_density": 0.17174448633209749, "road_density": 0.0, "ndvi": 0.089514913740567859, "ndbi": 0.19946802169084549, "imi": 0.49377768422235302, "informal_probability": 0.0125, "confidence": 0.56821805342444798, "explanation": "road structure: 1.00; impervious surface: 0.96; built-up intensity: 0.95; building irregularity: 0.38; building density: 0.16" }, "geometry": { "type": "Polygon", "coordinates": [ [ [ 80.272558030247353, 13.078184240301514 ], [ 80.272555380106056, 13.079088433182472 ], [ 80.271633004673305, 13.079085833538658 ], [ 80.271635658174176, 13.078181640843574 ], [ 80.272558030247353, 13.078184240301514 ] ] ] } },
{ "type": "Feature", "properties": { "cell_id": 684, "row": 21, "col": 12, "class_2019": "open_vegetated", "conf_2019": 1.0, "imi_2019": 0.139, "informal_prob_2019": 0.0, "class_2020": "informal", "conf_2020": 0.998, "imi_2020": 0.391, "informal_prob_2020": 0.998, "class_2021": "informal", "conf_2021": 0.998, "imi_2021": 0.409, "informal_prob_2021": 0.998, "class_2022": "commercial", "conf_2022": 0.734, "imi_2022": 0.475, "informal_prob_2022": 0.017, "class_2023": "commercial", "conf_2023": 0.72, "imi_2023": 0.491, "informal_prob_2023": 0.018, "class_2024": "commercial", "conf_2024": 0.754, "imi_2024": 0.489, "informal_prob_2024": 0.018, "class_2025": "commercial", "conf_2025": 0.763, "imi_2025": 0.502, "informal_prob_2025": 0.012, "class_2026": "commercial", "conf_2026": 0.681, "imi_2026": 0.485, "informal_prob_2026": 0.015, "trajectory": "other", "cluster_last": 0, "emerging_score": 0.74140356971235355, "emerging_zone": 1, "building_count": 4.0, "building_density": 0.18568449086224723, "road_density": 0.0, "ndvi": 0.12080793481552973, "ndbi": 0.17321742061525583, "imi": 0.48488069542423717, "informal_probability": 0.015, "confidence": 0.68142486739549468, "explanation": "road structure: 1.00; built-up intensity: 0.91; impervious surface: 0.83; building irregularity: 0.24; building density: 0.17" }, "geometry": { "type": "Polygon", "coordinates": [ [ [ 80.267948838618352, 13.07726701806636 ], [ 80.267946171879842, 13.078171210079303 ], [ 80.26702380080711, 13.078168594155123 ], [ 80.267026470904909, 13.077264402329231 ], [ 80.267948838618352, 13.07726701806636 ] ] ] } },
{ "type": "Feature", "properties": { "cell_id": 685, "row": 21, "col": 13, "class_2019": "open_vegetated", "conf_2019": 1.0, "imi_2019": 0.125, "informal_prob_2019": 0.0, "class_2020": "open_vegetated", "conf_2020": 0.96, "imi_2020": 0.145, "informal_prob_2020": 0.0, "class_2021": "open_vegetated", "conf_2021": 1.0, "imi_2021": 0.149, "informal_prob_2021": 0.0, "class_2022": "informal", "conf_2022": 0.997, "imi_2022": 0.433, "informal_prob_2022": 0.997, "class_2023": "informal", "conf_2023": 0.998, "imi_2023": 0.42, "informal_prob_2023": 0.998, "class_2024": "informal", "conf_2024": 1.0, "imi_2024": 0.432, "informal_prob_2024": 1.0, "class_2025": "informal", "conf_2025": 0.982, "imi_2025": 0.445, "informal_prob_2025": 0.982, "class_2026": "informal", "conf_2026": 0.992, "imi_2026": 0.443, "informal_prob_2026": 0.992, "trajectory": "new_informal", "cluster_last": 4, "emerging_score": 0.71362797831827607, "emerging_zone": 1, "building_count": 80.0, "building_density": 0.24369718851394123, "road_density": 0.0, "ndvi": 0.20488286855397747, "ndbi": 0.11135380437597632, "imi": 0.44266831182409105, "informal_probability": 0.99190246696504691, "confidence": 0.99190246696504691, "explanation": "road structure: 1.00; built-up intensity: 0.81; impervious surface: 0.46; building irregularity: 0.38; building density: 0.22" }, "geometry": { "type": "Polygon", "coordinates": [ [ [ 80.268871206532367, 13.077269630510481 ], [ 80.268868543153161, 13.078173822710241 ], [ 80.267946171879842, 13.078171210079303 ], [ 80.267948838618352, 13.07726701806636 ], [ 80.268871206532367, 13.077269630510481 ] ] ] } },
{ "type": "Feature", "properties": { "cell_id": 692, "row": 21, "col": 20, "class_2019": "open_vegetated", "conf_2019": 1.0, "imi_2019": 0.119, "informal_prob_2019": 0.0, "class_2020": "open_vegetated", "conf_2020": 1.0, "imi_2020": 0.114, "informal_prob_2020": 0.0, "class_2021": "open_vegetated", "conf_2021": 1.0, "imi_2021": 0.135, "informal_prob_2021": 0.0, "class_2022": "open_vegetated", "conf_2022": 1.0, "imi_2022": 0.138, "informal_prob_2022": 0.0, "class_2023": "open_vegetated", "conf_2023": 0.998, "imi_2023": 0.146, "informal_prob_2023": 0.0, "class_2024": "open_vegetated", "conf_2024": 1.0, "imi_2024": 0.148, "informal_prob_2024": 0.0, "class_2025": "informal", "conf_2025": 0.994, "imi_2025": 0.428, "informal_prob_2025": 0.994, "class_2026": "informal", "conf_2026": 0.999, "imi_2026": 0.417, "informal_prob_2026": 0.999, "trajectory": "new_informal", "cluster_last": 3, "emerging_score": 0.706739506640228, "emerging_zone": 1, "building_count": 104.0, "building_density": 0.31803518584625051, "road_density": 0.0, "ndvi": 0.24474988183006643, "ndbi": 0.11201217609923333, "imi": 0.41738917547424642, "informal_probability": 0.99885504201680675, "confidence": 0.99885504201680675, "explanation": "road structure: 1.00; built-up intensity: 0.82; impervious surface: 0.37; building irregularity: 0.35; building density: 0.29" }, "geometry": { "type": "Polygon", "coordinates": [ [ [ 80.275327787525868, 13.077287825414889 ], [ 80.275325147661846, 13.078192018915773 ], [ 80.274402774991444, 13.078189429337614 ], [ 80.274405418214769, 13.077285236021899 ], [ 80.275327787525868, 13.077287825414889 ] ] ] } },
{ "type": "Feature", "properties": { "cell_id": 695, "row": 21, "col": 23, "class_2019": "open_vegetated", "conf_2019": 0.985, "imi_2019": 0.053, "informal_prob_2019": 0.002, "class_2020": "open_vegetated", "conf_2020": 0.999, "imi_2020": 0.047, "informal_prob_2020": 0.0, "class_2021": "open_vegetated", "conf_2021": 1.0, "imi_2021": 0.047, "informal_prob_2021": 0.0, "class_2022": "open_vegetated", "conf_2022": 1.0, "imi_2022": 0.047, "informal_prob_2022": 0.0, "class_2023": "open_vegetated", "conf_2023": 0.998, "imi_2023": 0.043, "informal_prob_2023": 0.0, "class_2024": "open_vegetated", "conf_2024": 1.0, "imi_2024": 0.055, "informal_prob_2024": 0.0, "class_2025": "informal", "conf_2025": 0.84, "imi_2025": 0.431, "informal_prob_2025": 0.84, "class_2026": "informal", "conf_2026": 0.833, "imi_2026": 0.422, "informal_prob_2026": 0.833, "trajectory": "new_informal", "cluster_last": 3, "emerging_score": 0.90638439745258448, "emerging_zone": 1, "building_count": 2.0, "building_density": 0.85547487183930282, "road_density": 12.248352510132687, "ndvi": 0.20326737367548048, "ndbi": 0.11909921548794955, "imi": 0.42197984531329552, "informal_probability": 0.83304975024058736, "confidence": 0.83304975024058736, "explanation": "built-up intensity: 0.83; building density: 0.79; impervious surface: 0.49; road structure: 0.29; building irregularity: 0.21" }, "geometry": { "type": "Polygon", "coordinates": [ [ [ 80.27809489664952, 13.077295573835643 ], [ 80.27809226686351, 13.078199767890618 ], [ 80.277169893598128, 13.078197188192277 ], [ 80.277172526743485, 13.077292994321763 ], [ 80.27809489664952, 13.077295573835643 ] ] ] } },
{ "type": "Feature", "properties": { "cell_id": 716, "row": 22, "col": 12, "class_2019": "open_vegetated", "conf_2019": 1.0, "imi_2019": 0.071, "informal_prob_2019": 0.0, "class_2020": "informal", "conf_2020": 0.987, "imi_2020": 0.317, "informal_prob_2020": 0.987, "class_2021": "informal", "conf_2021": 0.989, "imi_2021": 0.332, "informal_prob_2021": 0.989, "class_2022": "informal", "conf_2022": 0.999, "imi_2022": 0.359, "informal_prob_2022": 0.999, "class_2023": "informal", "conf_2023": 0.992, "imi_2023": 0.378, "informal_prob_2023": 0.992, "class_2024": "informal", "conf_2024": 0.999, "imi_2024": 0.366, "informal_prob_2024": 0.999, "class_2025": "informal", "conf_2025": 0.99, "imi_2025": 0.381, "informal_prob_2025": 0.99, "class_2026": "informal", "conf_2026": 0.989, "imi_2026": 0.388, "informal_prob_2026": 0.989, "trajectory": "new_informal", "cluster_last": 4, "emerging_score": 0.7140103395085573, "emerging_zone": 1, "building_count": 85.0, "building_density": 0.26624352991113798, "road_density": 9.427515825190147, "ndvi": 0.22188076055143027, "ndbi": 0.11761340596654918, "imi": 0.38758641402034899, "informal_probability": 0.98934530302368595, "confidence": 0.98934530302368595, "explanation": "built-up intensity: 0.82; impervious surface: 0.47; road structure: 0.47; building irregularity: 0.35; building density: 0.24" }, "geometry": { "type": "Polygon", "coordinates": [ [ [ 80.267951505156262, 13.076362825989699 ], [ 80.267948838618352, 13.07726701806636 ], [ 80.267026470904909, 13.077264402329231 ], [ 80.267029140801867, 13.076360210439624 ], [ 80.267951505156262, 13.076362825989699 ] ] ] } },
{ "type": "Feature", "properties": { "cell_id": 717, "row": 22, "col": 13, "class_2019": "open_vegetated", "conf_2019": 1.0, "imi_2019": 0.099, "informal_prob_2019": 0.0, "class_2020": "open_vegetated", "conf_2020": 1.0, "imi_2020": 0.114, "informal_prob_2020": 0.0, "class_2021": "open_vegetated", "conf_2021": 1.0, "imi_2021": 0.117, "informal_prob_2021": 0.0, "class_2022": "open_vegetated", "conf_2022": 1.0, "imi_2022": 0.137, "informal_prob_2022": 0.0, "class_2023": "informal", "conf_2023": 0.966, "imi_2023": 0.407, "informal_prob_2023": 0.966, "class_2024": "informal", "conf_2024": 0.965, "imi_2024": 0.406, "informal_prob_2024": 0.965, "class_2025": "commercial", "conf_2025": 0.791, "imi_2025": 0.528, "informal_prob_2025": 0.018, "class_2026": "commercial", "conf_2026": 0.762, "imi_2026": 0.516, "informal_prob_2026": 0.02, "trajectory": "other", "cluster_last": 0, "emerging_score": 0.83381501838363448, "emerging_zone": 1, "building_count": 3.0, "building_density": 0.21560499525936175, "road_density": 0.0, "ndvi": 0.11462319996397127, "ndbi": 0.19203289685770869, "imi": 0.51593628929988, "informal_probability": 0.019989495798319327, "confidence": 0.76179739292154325, "explanation": "road structure: 1.00; built-up intensity: 0.94; impervious surface: 0.88; building irregularity: 0.52; building density: 0.20" }, "geometry": { "type": "Polygon", "coordinates": [ [ [ 80.268873869711243, 13.076365438247006 ], [ 80.268871206532367, 13.077269630510481 ], [ 80.267948838618352, 13.07726701806636 ], [ 80.267951505156262, 13.076362825989699 ], [ 80.268873869711243, 13.076365438247006 ] ] ] } },
{ "type": "Feature", "properties": { "cell_id": 718, "row": 22, "col": 14, "class_2019": "open_vegetated", "conf_2019": 1.0, "imi_2019": 0.103, "informal_prob_2019": 0.0, "class_2020": "open_vegetated", "conf_2020": 0.954, "imi_2020": 0.103, "informal_prob_2020": 0.002, "class_2021": "open_vegetated", "conf_2021": 1.0, "imi_2021": 0.098, "informal_prob_2021": 0.0, "class_2022": "open_vegetated", "conf_2022": 1.0, "imi_2022": 0.112, "informal_prob_2022": 0.0, "class_2023": "informal", "conf_2023": 0.984, "imi_2023": 0.395, "informal_prob_2023": 0.984, "class_2024": "informal", "conf_2024": 0.978, "imi_2024": 0.392, "informal_prob_2024": 0.978, "class_2025": "informal", "conf_2025": 0.99, "imi_2025": 0.426, "informal_prob_2025": 0.99, "class_2026": "informal", "conf_2026": 0.997, "imi_2026": 0.418, "informal_prob_2026": 0.997, "trajectory": "new_informal", "cluster_last": 4, "emerging_score": 0.72666093241828167, "emerging_zone": 1, "building_count": 105.0, "building_density": 0.30995682114649531, "road_density": 0.0, "ndvi": 0.20957146581262351, "ndbi": 0.12665872671990655, "imi": 0.41770612618496183, "informal_probability": 0.99679039754238363, "confidence": 0.99679039754238363, "explanation": "road structure: 1.00; built-up intensity: 0.84; impervious surface: 0.46; building irregularity: 0.36; building density: 0.29" }, "geometry": { "type": "Polygon", "coordinates": [ [ [ 80.269796234466554, 13.076368047211536 ], [ 80.269793574646727, 13.077272239661593 ], [ 80.268871206532367, 13.077269630510481 ], [ 80.268873869711243, 13.076365438247006 ], [ 80.269796234466554, 13.076368047211536 ] ] ] } },
{ "type": "Feature", "properties": { "cell_id": 725, "row": 22, "col": 21, "class_2019": "open_vegetated", "conf_2019": 1.0, "imi_2019": 0.1, "informal_prob_2019": 0.0, "class_2020": "open_vegetated", "conf_2020": 1.0, "imi_2020": 0.099, "informal_prob_2020": 0.0, "class_2021": "open_vegetated", "conf_2021": 1.0, "imi_2021": 0.094, "informal_prob_2021": 0.0, "class_2022": "open_vegetated", "conf_2022": 1.0, "imi_2022": 0.108, "informal_prob_2022": 0.0, "class_2023": "open_vegetated", "conf_2023": 1.0, "imi_2023": 0.113, "informal_prob_2023": 0.0, "class_2024": "open_vegetated", "conf_2024": 1.0, "imi_2024": 0.112, "informal_prob_2024": 0.0, "class_2025": "informal", "conf_2025": 0.993, "imi_2025": 0.366, "informal_prob_2025": 0.993, "class_2026": "informal", "conf_2026": 0.992, "imi_2026": 0.387, "informal_prob_2026": 0.992, "trajectory": "new_informal", "cluster_last": 3, "emerging_score": 0.67925421254598184, "emerging_zone": 1, "building_count": 70.0, "building_density": 0.20818631874452409, "road_density": 0.0, "ndvi": 0.25041280111297964, "ndbi": 0.12876259077514987, "imi": 0.38700882029546896, "informal_probability": 0.9925, "confidence": 0.9925, "explanation": "road structure: 1.00; built-up intensity: 0.84; building irregularity: 0.36; impervious surface: 0.34; building density: 0.19" }, "geometry": { "type": "Polygon", "coordinates": [ [ [ 80.276252793341868, 13.076386217765323 ], [ 80.276250157035506, 13.077290411514841 ], [ 80.275327787525868, 13.077287825414889 ], [ 80.275330427191292, 13.0763836318503 ], [ 80.276252793341868, 13.076386217765323 ] ] ] } },
{ "type": "Feature", "properties": { "cell_id": 749, "row": 23, "col": 13, "class_2019": "open_vegetated", "conf_2019": 0.937, "imi_2019": 0.153, "informal_prob_2019": 0.001, "class_2020": "open_vegetated", "conf_2020": 1.0, "imi_2020": 0.15, "informal_prob_2020": 0.0, "class_2021": "open_vegetated", "conf_2021": 1.0, "imi_2021": 0.155, "informal_prob_2021": 0.0, "class_2022": "open_vegetated", "conf_2022": 0.981, "imi_2022": 0.163, "informal_prob_2022": 0.0, "class_2023": "open_vegetated", "conf_2023": 1.0, "imi_2023": 0.181, "informal_prob_2023": 0.0, "class_2024": "open_vegetated", "conf_2024": 1.0, "imi_2024": 0.209, "informal_prob_2024": 0.0, "class_2025": "informal", "conf_2025": 0.996, "imi_2025": 0.458, "informal_prob_2025": 0.996, "class_2026": "informal", "conf_2026": 0.999, "imi_2026": 0.439, "informal_prob_2026": 0.999, "trajectory": "new_informal", "cluster_last": 4, "emerging_score": 0.68956828162114547, "emerging_zone": 1, "building_count": 105.0, "building_density": 0.31181290378912563, "road_density": 0.0, "ndvi": 0.24040625728666781, "ndbi": 0.1128314127237536, "imi": 0.43949299236364858, "informal_probability": 0.99855208333333334, "confidence": 0.99855208333333334, "explanation": "road structure: 1.00; built-up intensity: 0.82; impervious surface: 0.38; building irregularity: 0.38; building density: 0.29" }, "geometry": { "type": "Polygon", "coordinates": [ [ [ 80.268876532689774, 13.075461245919824 ], [ 80.268873869711243, 13.076365438247006 ], [ 80.267951505156262, 13.076362825989699 ], [ 80.267954171493585, 13.075458633849333 ], [ 80.268876532689774, 13.075461245919824 ] ] ] } },
{ "type": "Feature", "properties": { "cell_id": 760, "row": 23, "col": 24, "class_2019": "open_vegetated", "conf_2019": 0.993, "imi_2019": 0.124, "informal_prob_2019": 0.0, "class_2020": "open_vegetated", "conf_2020": 1.0, "imi_2020": 0.124, "informal_prob_2020": 0.0, "class_2021": "open_vegetated", "conf_2021": 1.0, "imi_2021": 0.131, "informal_prob_2021": 0.0, "class_2022": "informal", "conf_2022": 1.0, "imi_2022": 0.424, "informal_prob_2022": 1.0, "class_2023": "informal", "conf_2023": 0.99, "imi_2023": 0.408, "informal_prob_2023": 0.99, "class_2024": "informal", "conf_2024": 0.986, "imi_2024": 0.419, "informal_prob_2024": 0.986, "class_2025": "informal", "conf_2025": 0.999, "imi_2025": 0.453, "informal_prob_2025": 0.999, "class_2026": "informal", "conf_2026": 0.999, "imi_2026": 0.45, "informal_prob_2026": 0.999, "trajectory": "new_informal", "cluster_last": 3, "emerging_score": 0.72776288791563615, "emerging_zone": 1, "building_count": 93.0, "building_density": 0.27596916131099869, "road_density": 0.0, "ndvi": 0.21750894393771886, "ndbi": 0.12365956518799066, "imi": 0.44998588921384075, "informal_probability": 0.99855208333333334, "confidence": 0.99855208333333334, "explanation": "road structure: 1.00; built-up intensity: 0.83; impervious surface: 0.51; building irregularity: 0.37; building density: 0.25" }, "geometry": { "type": "Polygon", "coordinates": [ [ [ 80.279022519014035, 13.075489761386986 ], [ 80.279019892982475, 13.076393955753581 ], [ 80.278097526237715, 13.076391379716968 ], [ 80.278100155628096, 13.075487185534595 ], [ 80.279022519014035, 13.075489761386986 ] ] ] } },
{ "type": "Feature", "properties": { "cell_id": 780, "row": 24, "col": 12, "class_2019": "open_vegetated", "conf_2019": 0.999, "imi_2019": 0.138, "informal_prob_2019": 0.0, "class_2020": "open_vegetated", "conf_2020": 1.0, "imi_2020": 0.13, "informal_prob_2020": 0.0, "class_2021": "open_vegetated", "conf_2021": 1.0, "imi_2021": 0.136, "informal_prob_2021": 0.0, "class_2022": "open_vegetated", "conf_2022": 0.996, "imi_2022": 0.144, "informal_prob_2022": 0.0, "class_2023": "open_vegetated", "conf_2023": 1.0, "imi_2023": 0.141, "informal_prob_2023": 0.0, "class_2024": "informal", "conf_2024": 0.989, "imi_2024": 0.425, "informal_prob_2024": 0.989, "class_2025": "informal", "conf_2025": 0.998, "imi_2025": 0.425, "informal_prob_2025": 0.998, "class_2026": "informal", "conf_2026": 0.989, "imi_2026": 0.408, "informal_prob_2026": 0.989, "trajectory": "new_informal", "cluster_last": 4, "emerging_score": 0.66909242942935632, "emerging_zone": 1, "building_count": 75.0, "building_density": 0.22944900911227778, "road_density": 0.0, "ndvi": 0.24475130676291884, "ndbi": 0.12817693485994824, "imi": 0.40821492936304232, "informal_probability": 0.98873975409836068, "confidence": 0.98873975409836068, "explanation": "road structure: 1.00; built-up intensity: 0.84; building irregularity: 0.37; impervious surface: 0.31; building density: 0.21" }, "geometry": { "type": "Polygon", "coordinates": [ [ [ 80.267956837630337, 13.074554441645258 ], [ 80.267954171493585, 13.075458633849333 ], [ 80.267031810497983, 13.075456018486305 ], [ 80.267034479993285, 13.074551826469277 ], [ 80.267956837630337, 13.074554441645258 ] ] ] } },
{ "type": "Feature", "properties": { "cell_id": 781, "row": 24, "col": 13, "class_2019": "open_vegetated", "conf_2019": 1.0, "imi_2019": 0.111, "informal_prob_2019": 0.0, "class_2020": "open_vegetated", "conf_2020": 0.964, "imi_2020": 0.112, "informal_prob_2020": 0.002, "class_2021": "open_vegetated", "conf_2021": 1.0, "imi_2021": 0.108, "informal_prob_2021": 0.0, "class_2022": "open_vegetated", "conf_2022": 1.0, "imi_2022": 0.13, "informal_prob_2022": 0.0, "class_2023": "open_vegetated", "conf_2023": 1.0, "imi_2023": 0.127, "informal_prob_2023": 0.0, "class_2024": "informal", "conf_2024": 0.99, "imi_2024": 0.424, "informal_prob_2024": 0.99, "class_2025": "informal", "conf_2025": 0.988, "imi_2025": 0.431, "informal_prob_2025": 0.988, "class_2026": "informal", "conf_2026": 0.995, "imi_2026": 0.427, "informal_prob_2026": 0.995, "trajectory": "new_informal", "cluster_last": 4, "emerging_score": 0.72859634733416179, "emerging_zone": 1, "building_count": 110.0, "building_density": 0.32619065845280981, "road_density": 0.0, "ndvi": 0.23054764491040258, "ndbi": 0.10635193135123699, "imi": 0.42663129162170205, "informal_probability": 0.99478191890142309, "confidence": 0.99478191890142309, "explanation": "road structure: 1.00; built-up intensity: 0.81; building irregularity: 0.37; impervious surface: 0.36; building density: 0.30" }, "geometry": { "type": "Polygon", "coordinates": [ [ [ 80.268879195467974, 13.074557053528938 ], [ 80.268876532689774, 13.075461245919824 ], [ 80.267954171493585, 13.075458633849333 ], [ 80.267956837630337, 13.074554441645258 ], [ 80.268879195467974, 13.074557053528938 ] ] ] } },
{ "type": "Feature", "properties": { "cell_id": 782, "row": 24, "col": 14, "class_2019": "open_vegetated", "conf_2019": 1.0, "imi_2019": 0.1, "informal_prob_2019": 0.0, "class_2020": "open_vegetated", "conf_2020": 0.999, "imi_2020": 0.09, "informal_prob_2020": 0.0, "class_2021": "open_vegetated", "conf_2021": 1.0, "imi_2021": 0.093, "informal_prob_2021": 0.0, "class_2022": "open_vegetated", "conf_2022": 1.0, "imi_2022": 0.119, "informal_prob_2022": 0.0, "class_2023": "open_vegetated", "conf_2023": 1.0, "imi_2023": 0.115, "informal_prob_2023": 0.0, "class_2024": "open_vegetated", "conf_2024": 1.0, "imi_2024": 0.124, "informal_prob_2024": 0.0, "class_2025": "informal", "conf_2025": 0.988, "imi_2025": 0.422, "informal_prob_2025": 0.988, "class_2026": "informal", "conf_2026": 0.993, "imi_2026": 0.423, "informal_prob_2026": 0.993, "trajectory": "new_informal", "cluster_last": 4, "emerging_score": 0.72927656316434941, "emerging_zone": 1, "building_count": 95.0, "building_density": 0.29253211693101794, "road_density": 0.0, "ndvi": 0.20436642876826228, "ndbi": 0.11102174133062363, "imi": 0.42268602636821162, "informal_probability": 0.99308868080418622, "confidence": 0.99308868080418622, "explanation": "road structure: 1.00; built-up intensity: 0.81; impervious surface: 0.53; building irregularity: 0.38; building density: 0.27" }, "geometry": { "type": "Polygon", "coordinates": [ [ [ 80.269801553505928, 13.07455966212031 ], [ 80.269798894086279, 13.075463854697777 ], [ 80.268876532689774, 13.075461245919824 ], [ 80.268879195467974, 13.074557053528938 ], [ 80.269801553505928, 13.07455966212031 ] ] ] } },
{ "type": "Feature", "properties": { "cell_id": 791, "row": 24, "col": 23, "class_2019": "open_vegetated", "conf_2019": 1.0, "imi_2019": 0.144, "informal_prob_2019": 0.0, "class_2020": "open_vegetated", "conf_2020": 1.0, "imi_2020": 0.143, "informal_prob_2020": 0.0, "class_2021": "open_vegetated", "conf_2021": 0.999, "imi_2021": 0.15, "informal_prob_2021": 0.0, "class_2022": "open_vegetated", "conf_2022": 1.0, "imi_2022": 0.182, "informal_prob_2022": 0.0, "class_2023": "open_vegetated", "conf_2023": 1.0, "imi_2023": 0.183, "informal_prob_2023": 0.0, "class_2024": "informal", "conf_2024": 0.99, "imi_2024": 0.446, "informal_prob_2024": 0.99, "class_2025": "informal", "conf_2025": 0.991, "imi_2025": 0.448, "informal_prob_2025": 0.991, "class_2026": "informal", "conf_2026": 0.98, "imi_2026": 0.466, "informal_prob_2026": 0.98, "trajectory": "new_informal", "cluster_last": 3, "emerging_score": 0.72085218303362597, "emerging_zone": 1, "building_count": 73.0, "building_density": 0.20899638298917872, "road_density": 0.0, "ndvi": 0.21265135023742915, "ndbi": 0.13252229201607407, "imi": 0.46621794589473931, "informal_probability": 0.97996081907674049, "confidence": 0.97996081907674049, "explanation": "road structure: 1.00; built-up intensity: 0.85; impervious surface: 0.46; building irregularity: 0.42; building density: 0.19" }, "geometry": { "type": "Polygon", "coordinates": [ [ [ 80.278102784820689, 13.07458299128853 ], [ 80.278100155628096, 13.075487185534595 ], [ 80.277177792439986, 13.075484606389633 ], [ 80.277180424991144, 13.074580412328027 ], [ 80.278102784820689, 13.07458299128853 ] ] ] } },
{ "type": "Feature", "properties": { "cell_id": 792, "row": 24, "col": 24, "class_2019": "open_vegetated", "conf_2019": 1.0, "imi_2019": 0.214, "informal_prob_2019": 0.0, "class_2020": "open_vegetated", "conf_2020": 0.999, "imi_2020": 0.214, "informal_prob_2020": 0.0, "class_2021": "informal", "conf_2021": 0.999, "imi_2021": 0.367, "informal_prob_2021": 0.999, "class_2022": "high_rise", "conf_2022": 0.554, "imi_2022": 0.46, "informal_prob_2022": 0.018, "class_2023": "commercial", "conf_2023": 0.542, "imi_2023": 0.471, "informal_prob_2023": 0.012, "class_2024": "commercial", "conf_2024": 0.636, "imi_2024": 0.472, "informal_prob_2024": 0.012, "class_2025": "commercial", "conf_2025": 0.834, "imi_2025": 0.478, "informal_prob_2025": 0.01, "class_2026": "commercial", "conf_2026": 0.869, "imi_2026": 0.484, "informal_prob_2026": 0.01, "trajectory": "other", "cluster_last": 0, "emerging_score": 0.68709770725911412, "emerging_zone": 1, "building_count": 4.0, "building_density": 0.26451668363960423, "road_density": 33.736890183677758, "ndvi": 0.10263271235744469, "ndbi": 0.1943966447468847, "imi": 0.48378648303211197, "informal_probability": 0.01, "confidence": 0.86895331093083006, "explanation": "built-up intensity: 0.94; impervious surface: 0.92; road structure: 0.47; building irregularity: 0.39; building density: 0.24" }, "geometry": { "type": "Polygon", "coordinates": [ [ [ 80.279025144848035, 13.074585566956697 ], [ 80.279022519014035, 13.075489761386986 ], [ 80.278100155628096, 13.075487185534595 ], [ 80.278102784820689, 13.07458299128853 ], [ 80.279025144848035, 13.074585566956697 ] ] ] } },
{ "type": "Feature", "properties": { "cell_id": 814, "row": 25, "col": 14, "class_2019": "open_vegetated", "conf_2019": 1.0, "imi_2019": 0.129, "informal_prob_2019": 0.0, "class_2020": "open_vegetated", "conf_2020": 1.0, "imi_2020": 0.141, "informal_prob_2020": 0.0, "class_2021": "open_vegetated", "conf_2021": 1.0, "imi_2021": 0.138, "informal_prob_2021": 0.0, "class_2022": "informal", "conf_2022": 0.877, "imi_2022": 0.516, "informal_prob_2022": 0.877, "class_2023": "informal", "conf_2023": 0.879, "imi_2023": 0.491, "informal_prob_2023": 0.879, "class_2024": "informal", "conf_2024": 0.875, "imi_2024": 0.509, "informal_prob_2024": 0.875, "class_2025": "informal", "conf_2025": 0.877, "imi_2025": 0.533, "informal_prob_2025": 0.877, "class_2026": "informal", "conf_2026": 0.885, "imi_2026": 0.508, "informal_prob_2026": 0.885, "trajectory": "new_informal", "cluster_last": 4, "emerging_score": 0.93985288058787486, "emerging_zone": 1, "building_count": 2.0, "building_density": 0.92594894903317049, "road_density": 0.0, "ndvi": 0.23295158546417952, "ndbi": 0.12086336014326662, "imi": 0.50789544679287646, "informal_probability": 0.88512384123012111, "confidence": 0.88512384123012111, "explanation": "road structure: 1.00; building density: 0.85; built-up intensity: 0.83; impervious surface: 0.32; building irregularity: 0.24" }, "geometry": { "type": "Polygon", "coordinates": [ [ [ 80.269804212725518, 13.073655469479148 ], [ 80.269801553505928, 13.07455966212031 ], [ 80.268879195467974, 13.074557053528938 ], [ 80.268881858045845, 13.073652861074343 ], [ 80.269804212725518, 13.073655469479148 ] ] ] } },
{ "type": "Feature", "properties": { "cell_id": 846, "row": 26, "col": 14, "class_2019": "open_vegetated", "conf_2019": 0.998, "imi_2019": 0.053, "informal_prob_2019": 0.0, "class_2020": "informal", "conf_2020": 0.988, "imi_2020": 0.33, "informal_prob_2020": 0.988, "class_2021": "informal", "conf_2021": 0.995, "imi_2021": 0.325, "informal_prob_2021": 0.995, "class_2022": "informal", "conf_2022": 0.999, "imi_2022": 0.371, "informal_prob_2022": 0.999, "class_2023": "informal", "conf_2023": 0.994, "imi_2023": 0.357, "informal_prob_2023": 0.994, "class_2024": "informal", "conf_2024": 0.999, "imi_2024": 0.371, "informal_prob_2024": 0.999, "class_2025": "informal", "conf_2025": 0.999, "imi_2025": 0.361, "informal_prob_2025": 0.999, "class_2026": "informal", "conf_2026": 0.999, "imi_2026": 0.376, "informal_prob_2026": 0.999, "trajectory": "new_informal", "cluster_last": 4, "emerging_score": 0.73646634868163574, "emerging_zone": 1, "building_count": 97.0, "building_density": 0.29776329372449312, "road_density": 37.985650737720711, "ndvi": 0.21614347629249095, "ndbi": 0.11430025363806635, "imi": 0.37626276323312585, "informal_probability": 0.99914723032069974, "confidence": 0.99914723032069974, "explanation": "built-up intensity: 0.82; impervious surface: 0.49; road structure: 0.47; building irregularity: 0.35; building density: 0.27" }, "geometry": { "type": "Polygon", "coordinates": [ [ [ 80.269806871745018, 13.072751276774286 ], [ 80.269804212725518, 13.073655469479148 ], [ 80.268881858045845, 13.073652861074343 ], [ 80.268884520423384, 13.072748668556059 ], [ 80.269806871745018, 13.072751276774286 ] ] ] } },
{ "type": "Feature", "properties": { "cell_id": 878, "row": 27, "col": 14, "class_2019": "open_vegetated", "conf_2019": 0.998, "imi_2019": 0.037, "informal_prob_2019": 0.0, "class_2020": "open_vegetated", "conf_2020": 0.998, "imi_2020": 0.058, "informal_prob_2020": 0.0, "class_2021": "open_vegetated", "conf_2021": 0.998, "imi_2021": 0.056, "informal_prob_2021": 0.0, "class_2022": "informal", "conf_2022": 0.999, "imi_2022": 0.338, "informal_prob_2022": 0.999, "class_2023": "informal", "conf_2023": 0.992, "imi_2023": 0.352, "informal_prob_2023": 0.992, "class_2024": "informal", "conf_2024": 0.999, "imi_2024": 0.331, "informal_prob_2024": 0.999, "class_2025": "informal", "conf_2025": 0.992, "imi_2025": 0.331, "informal_prob_2025": 0.992, "class_2026": "informal", "conf_2026": 0.994, "imi_2026": 0.343, "informal_prob_2026": 0.994, "trajectory": "new_informal", "cluster_last": 4, "emerging_score": 0.70911502159774609, "emerging_zone": 1, "building_count": 90.0, "building_density": 0.28605750133436075, "road_density": 40.168007948764782, "ndvi": 0.21533507678657771, "ndbi": 0.11078134292736649, "imi": 0.34265837216067419, "informal_probability": 0.99414723032069974, "confidence": 0.99414723032069974, "explanation": "built-up intensity: 0.81; impervious surface: 0.48; building irregularity: 0.34; road structure: 0.29; building density: 0.26" }, "geometry": { "type": "Polygon", "coordinates": [ [ [ 80.269809530564459, 13.071847084005729 ], [ 80.269806871745018, 13.072751276774286 ], [ 80.268884520423384, 13.072748668556059 ], [ 80.268887182600608, 13.071844475974077 ], [ 80.269809530564459, 13.071847084005729 ] ] ] } },
{ "type": "Feature", "properties": { "cell_id": 879, "row": 27, "col": 15, "class_2019": "open_vegetated", "conf_2019": 1.0, "imi_2019": 0.1, "informal_prob_2019": 0.0, "class_2020": "open_vegetated", "conf_2020": 1.0, "imi_2020": 0.112, "informal_prob_2020": 0.0, "class_2021": "open_vegetated", "conf_2021": 1.0, "imi_2021": 0.11, "informal_prob_2021": 0.0, "class_2022": "informal", "conf_2022": 0.996, "imi_2022": 0.384, "informal_prob_2022": 0.996, "class_2023": "informal", "conf_2023": 0.992, "imi_2023": 0.391, "informal_prob_2023": 0.992, "class_2024": "informal", "conf_2024": 0.992, "imi_2024": 0.385, "informal_prob_2024": 0.992, "class_2025": "informal", "conf_2025": 0.99, "imi_2025": 0.406, "informal_prob_2025": 0.99, "class_2026": "informal", "conf_2026": 0.998, "imi_2026": 0.408, "informal_prob_2026": 0.998, "trajectory": "new_informal", "cluster_last": 4, "emerging_score": 0.70468169588177032, "emerging_zone": 1, "building_count": 74.0, "building_density": 0.22802077438944002, "road_density": 0.0, "ndvi": 0.21644710669293998, "ndbi": 0.12113300220691599, "imi": 0.40846097741877502, "informal_probability": 0.9975, "confidence": 0.9975, "explanation": "road structure: 1.00; built-up intensity: 0.83; impervious surface: 0.51; building irregularity: 0.33; building density: 0.21" }, "geometry": { "type": "Polygon", "coordinates": [ [ [ 80.27073187872837, 13.071849688745781 ], [ 80.270729223266727, 13.072753881700674 ], [ 80.269806871745018, 13.072751276774286 ], [ 80.269809530564459, 13.071847084005729 ], [ 80.27073187872837, 13.071849688745781 ] ] ] } },
{ "type": "Feature", "properties": { "cell_id": 880, "row": 27, "col": 16, "class_2019": "open_vegetated", "conf_2019": 1.0, "imi_2019": 0.108, "informal_prob_2019": 0.0, "class_2020": "open_vegetated", "conf_2020": 1.0, "imi_2020": 0.1, "informal_prob_2020": 0.0, "class_2021": "open_vegetated", "conf_2021": 1.0, "imi_2021": 0.101, "informal_prob_2021": 0.0, "class_2022": "open_vegetated", "conf_2022": 1.0, "imi_2022": 0.118, "informal_prob_2022": 0.0, "class_2023": "open_vegetated", "conf_2023": 1.0, "imi_2023": 0.116, "informal_prob_2023": 0.0, "class_2024": "informal", "conf_2024": 0.996, "imi_2024": 0.369, "informal_prob_2024": 0.996, "class_2025": "informal", "conf_2025": 0.991, "imi_2025": 0.387, "informal_prob_2025": 0.991, "class_2026": "informal", "conf_2026": 1.0, "imi_2026": 0.402, "informal_prob_2026": 1.0, "trajectory": "new_informal", "cluster_last": 4, "emerging_score": 0.68133075304134672, "emerging_zone": 1, "building_count": 71.0, "building_density": 0.20986759866806343, "road_density": 0.0, "ndvi": 0.21796873843064532, "ndbi": 0.11792219339520671, "imi": 0.40158066061446607, "informal_probability": 1.0, "confidence": 1.0, "explanation": "road structure: 1.00; built-up intensity: 0.83; impervious surface: 0.45; building irregularity: 0.39; building density: 0.19" }, "geometry": { "type": "Polygon", "coordinates": [ [ [ 80.2716542270921, 13.071852290194235 ], [ 80.27165157498824, 13.072756483335226 ], [ 80.270729223266727, 13.072753881700674 ], [ 80.27073187872837, 13.071849688745781 ], [ 80.2716542270921, 13.071852290194235 ] ] ] } },
{ "type": "Feature", "properties": { "cell_id": 913, "row": 28, "col": 17, "class_2019": "open_vegetated", "conf_2019": 1.0, "imi_2019": 0.113, "informal_prob_2019": 0.0, "class_2020": "open_vegetated", "conf_2020": 1.0, "imi_2020": 0.108, "informal_prob_2020": 0.0, "class_2021": "open_vegetated", "conf_2021": 1.0, "imi_2021": 0.106, "informal_prob_2021": 0.0, "class_2022": "open_vegetated", "conf_2022": 1.0, "imi_2022": 0.11, "informal_prob_2022": 0.0, "class_2023": "open_vegetated", "conf_2023": 0.999, "imi_2023": 0.115, "informal_prob_2023": 0.0, "class_2024": "open_vegetated", "conf_2024": 0.988, "imi_2024": 0.126, "informal_prob_2024": 0.0, "class_2025": "informal", "conf_2025": 0.994, "imi_2025": 0.383, "informal_prob_2025": 0.994, "class_2026": "informal", "conf_2026": 0.999, "imi_2026": 0.409, "informal_prob_2026": 0.999, "trajectory": "new_informal", "cluster_last": 4, "emerging_score": 0.68024701606517746, "emerging_zone": 1, "building_count": 69.0, "building_density": 0.20318806879256615, "road_density": 0.0, "ndvi": 0.22602535290643572, "ndbi": 0.12418593565234914, "imi": 0.40859280054722363, "informal_probability": 0.99885504201680675, "confidence": 0.99885504201680675, "explanation": "road structure: 1.00; built-up intensity: 0.83; impervious surface: 0.48; building irregularity: 0.39; building density: 0.19" }, "geometry": { "type": "Polygon", "coordinates": [ [ [ 80.272579224202119, 13.070950694960532 ], [ 80.272576575655378, 13.071854888351073 ], [ 80.2716542270921, 13.071852290194235 ], [ 80.271656878996396, 13.070948096989554 ], [ 80.272579224202119, 13.070950694960532 ] ] ] } },
{ "type": "Feature", "properties": { "cell_id": 940, "row": 29, "col": 12, "class_2019": "open_vegetated", "conf_2019": 1.0, "imi_2019": 0.136, "informal_prob_2019": 0.0, "class_2020": "informal", "conf_2020": 0.998, "imi_2020": 0.414, "informal_prob_2020": 0.998, "class_2021": "informal", "conf_2021": 1.0, "imi_2021": 0.419, "informal_prob_2021": 1.0, "class_2022": "informal", "conf_2022": 1.0, "imi_2022": 0.424, "informal_prob_2022": 1.0, "class_2023": "informal", "conf_2023": 1.0, "imi_2023": 0.42, "informal_prob_2023": 1.0, "class_2024": "informal", "conf_2024": 0.978, "imi_2024": 0.413, "informal_prob_2024": 0.978, "class_2025": "informal", "conf_2025": 0.995, "imi_2025": 0.413, "informal_prob_2025": 0.995, "class_2026": "informal", "conf_2026": 0.999, "imi_2026": 0.454, "informal_prob_2026": 0.999, "trajectory": "new_informal", "cluster_last": 4, "emerging_score": 0.72249221199686953, "emerging_zone": 1, "building_count": 91.0, "building_density": 0.27139221512896755, "road_density": 0.0, "ndvi": 0.21108845072798432, "ndbi": 0.12555902836844324, "imi": 0.45392309499233585, "informal_probability": 0.99855208333333334, "confidence": 0.99855208333333334, "explanation": "road structure: 1.00; built-up intensity: 0.84; impervious surface: 0.49; building irregularity: 0.38; building density: 0.25" }, "geometry": { "type": "Polygon", "coordinates": [ [ [ 80.2679701653054, 13.070033479669416 ], [ 80.267967500171537, 13.070937672191967 ], [ 80.267045155966102, 13.070935057764165 ], [ 80.267047824457251, 13.070030865428661 ], [ 80.2679701653054, 13.070033479669416 ] ] ] } },
{ "type": "Feature", "properties": { "cell_id": 942, "row": 29, "col": 14, "class_2019": "open_vegetated", "conf_2019": 0.961, "imi_2019": 0.107, "informal_prob_2019": 0.001, "class_2020": "open_vegetated", "conf_2020": 1.0, "imi_2020": 0.11, "informal_prob_2020": 0.0, "class_2021": "informal", "conf_2021": 0.987, "imi_2021": 0.354, "informal_prob_2021": 0.987, "class_2022": "informal", "conf_2022": 0.991, "imi_2022": 0.361, "informal_prob_2022": 0.991, "class_2023": "informal", "conf_2023": 0.996, "imi_2023": 0.363, "informal_prob_2023": 0.996, "class_2024": "informal", "conf_2024": 1.0, "imi_2024": 0.386, "informal_prob_2024": 1.0, "class_2025": "informal", "conf_2025": 0.999, "imi_2025": 0.392, "informal_prob_2025": 0.999, "class_2026": "informal", "conf_2026": 0.996, "imi_2026": 0.389, "informal_prob_2026": 0.996, "trajectory": "new_informal", "cluster_last": 4, "emerging_score": 0.65910239663791848, "emerging_zone": 1, "building_count": 60.0, "building_density": 0.1932714460419811, "road_density": 0.0, "ndvi": 0.22701017612591387, "ndbi": 0.12127187597565353, "imi": 0.38928457980029385, "informal_probability": 0.99637892376681603, "confidence": 0.99637892376681603, "explanation": "road structure: 1.00; built-up intensity: 0.83; impervious surface: 0.44; building irregularity: 0.33; building density: 0.18" }, "geometry": { "type": "Polygon", "coordinates": [ [ [ 80.269814847603143, 13.070038698277562 ], [ 80.269812189183838, 13.070942891173488 ], [ 80.268889844577515, 13.070940283328408 ], [ 80.268892506354121, 13.070036090619054 ], [ 80.269814847603143, 13.070038698277562 ] ] ] } },
{ "type": "Feature", "properties": { "cell_id": 945, "row": 29, "col": 17, "class_2019": "open_vegetated", "conf_2019": 1.0, "imi_2019": 0.106, "informal_prob_2019": 0.0, "class_2020": "open_vegetated", "conf_2020": 0.997, "imi_2020": 0.099, "informal_prob_2020": 0.0, "class_2021": "open_vegetated", "conf_2021": 1.0, "imi_2021": 0.107, "informal_prob_2021": 0.0, "class_2022": "open_vegetated", "conf_2022": 1.0, "imi_2022": 0.108, "informal_prob_2022": 0.0, "class_2023": "open_vegetated", "conf_2023": 1.0, "imi_2023": 0.106, "informal_prob_2023": 0.0, "class_2024": "open_vegetated", "conf_2024": 1.0, "imi_2024": 0.103, "informal_prob_2024": 0.0, "class_2025": "open_vegetated", "conf_2025": 0.999, "imi_2025": 0.118, "informal_prob_2025": 0.0, "class_2026": "informal", "conf_2026": 0.999, "imi_2026": 0.412, "informal_prob_2026": 0.999, "trajectory": "new_informal", "cluster_last": 4, "emerging_score": 0.69177215753534838, "emerging_zone": 1, "building_count": 63.0, "building_density": 0.19971878206777544, "road_density": 0.0, "ndvi": 0.22856934159994124, "ndbi": 0.1118550740624778, "imi": 0.41228006723036509, "informal_probability": 0.99887892376681608, "confidence": 0.99887892376681608, "explanation": "road structure: 1.00; built-up intensity: 0.82; impervious surface: 0.42; building irregularity: 0.36; building density: 0.18" }, "geometry": { "type": "Polygon", "coordinates": [ [ [ 80.272581872549566, 13.070046501506303 ], [ 80.272579224202119, 13.070950694960532 ], [ 80.271656878996396, 13.070948096989554 ], [ 80.271659530701129, 13.07004390372119 ], [ 80.272581872549566, 13.070046501506303 ] ] ] } },
{ "type": "Feature", "properties": { "cell_id": 946, "row": 29, "col": 18, "class_2019": "open_vegetated", "conf_2019": 0.998, "imi_2019": 0.123, "informal_prob_2019": 0.0, "class_2020": "open_vegetated", "conf_2020": 1.0, "imi_2020": 0.113, "informal_prob_2020": 0.0, "class_2021": "open_vegetated", "conf_2021": 1.0, "imi_2021": 0.113, "informal_prob_2021": 0.0, "class_2022": "open_vegetated", "conf_2022": 1.0, "imi_2022": 0.119, "informal_prob_2022": 0.0, "class_2023": "open_vegetated", "conf_2023": 0.974, "imi_2023": 0.125, "informal_prob_2023": 0.0, "class_2024": "open_vegetated", "conf_2024": 1.0, "imi_2024": 0.122, "informal_prob_2024": 0.0, "class_2025": "open_vegetated", "conf_2025": 1.0, "imi_2025": 0.13, "informal_prob_2025": 0.0, "class_2026": "informal", "conf_2026": 0.785, "imi_2026": 0.452, "informal_prob_2026": 0.785, "trajectory": "new_informal", "cluster_last": 4, "emerging_score": 0.72173515238266039, "emerging_zone": 1, "building_count": 77.0, "building_density": 0.23973739088203724, "road_density": 0.0, "ndvi": 0.18384322327561675, "ndbi": 0.1181122847320512, "imi": 0.45159966136288499, "informal_probability": 0.78505722398034405, "confidence": 0.78505722398034405, "explanation": "road structure: 1.00; built-up intensity: 0.83; impervious surface: 0.66; building irregularity: 0.35; building density: 0.22" }, "geometry": { "type": "Polygon", "coordinates": [ [ [ 80.27350421459731, 13.070049096000279 ], [ 80.273501569607163, 13.07095328964013 ], [ 80.272579224202119, 13.070950694960532 ], [ 80.272581872549566, 13.070046501506303 ], [ 80.27350421459731, 13.070049096000279 ] ] ] } },
{ "type": "Feature", "properties": { "cell_id": 971, "row": 30, "col": 11, "class_2019": "open_vegetated", "conf_2019": 0.995, "imi_2019": 0.051, "informal_prob_2019": 0.0, "class_2020": "open_vegetated", "conf_2020": 0.995, "imi_2020": 0.059, "informal_prob_2020": 0.0, "class_2021": "open_vegetated", "conf_2021": 0.976, "imi_2021": 0.06, "informal_prob_2021": 0.0, "class_2022": "open_vegetated", "conf_2022": 0.995, "imi_2022": 0.071, "informal_prob_2022": 0.0, "class_2023": "open_vegetated", "conf_2023": 0.994, "imi_2023": 0.081, "informal_prob_2023": 0.0, "class_2024": "informal", "conf_2024": 0.999, "imi_2024": 0.349, "informal_prob_2024": 0.999, "class_2025": "informal", "conf_2025": 0.997, "imi_2025": 0.337, "informal_prob_2025": 0.997, "class_2026": "informal", "conf_2026": 0.992, "imi_2026": 0.36, "informal_prob_2026": 0.992, "trajectory": "new_informal", "cluster_last": 4, "emerging_score": 0.70325994994495766, "emerging_zone": 1, "building_count": 72.0, "building_density": 0.22737246269907338, "road_density": 67.779603759357599, "ndvi": 0.25441106192767621, "ndbi": 0.12944221278652548, "imi": 0.35978927048124715, "informal_probability": 0.99164723032069968, "confidence": 0.99164723032069968, "explanation": "built-up intensity: 0.84; impervious surface: 0.38; building irregularity: 0.37; road structure: 0.29; building density: 0.21" }, "geometry": { "type": "Polygon", "coordinates": [ [ [ 80.267050492747586, 13.069126673029471 ], [ 80.267047824457251, 13.070030865428661 ], [ 80.266125483809915, 13.070028247896783 ], [ 80.266128155457267, 13.069124055684869 ], [ 80.267050492747586, 13.069126673029471 ] ] ] } },
{ "type": "Feature", "properties": { "cell_id": 972, "row": 30, "col": 12, "class_2019": "open_vegetated", "conf_2019": 1.0, "imi_2019": 0.113, "informal_prob_2019": 0.0, "class_2020": "open_vegetated", "conf_2020": 1.0, "imi_2020": 0.123, "informal_prob_2020": 0.0, "class_2021": "open_vegetated", "conf_2021": 1.0, "imi_2021": 0.122, "informal_prob_2021": 0.0, "class_2022": "open_vegetated", "conf_2022": 0.98, "imi_2022": 0.147, "informal_prob_2022": 0.002, "class_2023": "open_vegetated", "conf_2023": 0.994, "imi_2023": 0.144, "informal_prob_2023": 0.0, "class_2024": "open_vegetated", "conf_2024": 0.999, "imi_2024": 0.155, "informal_prob_2024": 0.0, "class_2025": "open_vegetated", "conf_2025": 0.998, "imi_2025": 0.168, "informal_prob_2025": 0.0, "class_2026": "informal", "conf_2026": 0.994, "imi_2026": 0.429, "informal_prob_2026": 0.994, "trajectory": "new_informal", "cluster_last": 4, "emerging_score": 0.73604500639673798, "emerging_zone": 1, "building_count": 109.0, "building_density": 0.3335642471607746, "road_density": 0.0, "ndvi": 0.24102868684567511, "ndbi": 0.12377800387330354, "imi": 0.42933206529960133, "informal_probability": 0.99368821292775666, "confidence": 0.99368821292775666, "explanation": "road structure: 1.00; built-up intensity: 0.83; building irregularity: 0.35; impervious surface: 0.34; building density: 0.31" }, "geometry": { "type": "Polygon", "coordinates": [ [ [ 80.267972830238719, 13.069129287083188 ], [ 80.2679701653054, 13.070033479669416 ], [ 80.267047824457251, 13.070030865428661 ], [ 80.267050492747586, 13.069126673029471 ], [ 80.267972830238719, 13.069129287083188 ] ] ] } },
{ "type": "Feature", "properties": { "cell_id": 974, "row": 30, "col": 14, "class_2019": "open_vegetated", "conf_2019": 1.0, "imi_2019": 0.139, "informal_prob_2019": 0.0, "class_2020": "open_vegetated", "conf_2020": 1.0, "imi_2020": 0.139, "informal_prob_2020": 0.0, "class_2021": "open_vegetated", "conf_2021": 1.0, "imi_2021": 0.15, "informal_prob_2021": 0.0, "class_2022": "open_vegetated", "conf_2022": 1.0, "imi_2022": 0.156, "informal_prob_2022": 0.0, "class_2023": "open_vegetated", "conf_2023": 1.0, "imi_2023": 0.157, "informal_prob_2023": 0.0, "class_2024": "informal", "conf_2024": 0.99, "imi_2024": 0.418, "informal_prob_2024": 0.99, "class_2025": "informal", "conf_2025": 1.0, "imi_2025": 0.41, "informal_prob_2025": 1.0, "class_2026": "informal", "conf_2026": 0.998, "imi_2026": 0.406, "informal_prob_2026": 0.998, "trajectory": "new_informal", "cluster_last": 4, "emerging_score": 0.67574811001249258, "emerging_zone": 1, "building_count": 99.0, "building_density": 0.29636305145668795, "road_density": 0.0, "ndvi": 0.23601265563862397, "ndbi": 0.12264719033613801, "imi": 0.40551570570482826, "informal_probability": 0.9975, "confidence": 0.9975, "explanation": "road structure: 1.00; built-up intensity: 0.83; building irregularity: 0.39; impervious surface: 0.35; building density: 0.27" }, "geometry": { "type": "Polygon", "coordinates": [ [ [ 80.269817505822402, 13.069134505317956 ], [ 80.269814847603143, 13.070038698277562 ], [ 80.268892506354121, 13.070036090619054 ], [ 80.268895167930395, 13.069131897846017 ], [ 80.269817505822402, 13.069134505317956 ] ] ] } },
{ "type": "Feature", "properties": { "cell_id": 975, "row": 30, "col": 15, "class_2019": "open_vegetated", "conf_2019": 1.0, "imi_2019": 0.1, "informal_prob_2019": 0.0, "class_2020": "open_vegetated", "conf_2020": 1.0, "imi_2020": 0.095, "informal_prob_2020": 0.0, "class_2021": "open_vegetated", "conf_2021": 1.0, "imi_2021": 0.104, "informal_prob_2021": 0.0, "class_2022": "open_vegetated", "conf_2022": 1.0, "imi_2022": 0.108, "informal_prob_2022": 0.0, "class_2023": "open_vegetated", "conf_2023": 0.962, "imi_2023": 0.113, "informal_prob_2023": 0.002, "class_2024": "informal", "conf_2024": 0.992, "imi_2024": 0.415, "informal_prob_2024": 0.992, "class_2025": "informal", "conf_2025": 0.837, "imi_2025": 0.448, "informal_prob_2025": 0.837, "class_2026": "informal", "conf_2026": 0.992, "imi_2026": 0.41, "informal_prob_2026": 0.992, "trajectory": "new_informal", "cluster_last": 4, "emerging_score": 0.71999159168966576, "emerging_zone": 1, "building_count": 105.0, "building_density": 0.31276998869426531, "road_density": 0.0, "ndvi": 0.22755009323358535, "ndbi": 0.112753261893522, "imi": 0.40954012008374879, "informal_probability": 0.9925, "confidence": 0.9925, "explanation": "road structure: 1.00; built-up intensity: 0.82; building irregularity: 0.39; impervious surface: 0.35; building density: 0.29" }, "geometry": { "type": "Polygon", "coordinates": [ [ [ 80.270739843914455, 13.069137109499003 ], [ 80.270737189052227, 13.070041302644942 ], [ 80.269814847603143, 13.070038698277562 ], [ 80.269817505822402, 13.069134505317956 ], [ 80.270739843914455, 13.069137109499003 ] ] ] } },
{ "type": "Feature", "properties": { "cell_id": 978, "row": 30, "col": 18, "class_2019": "open_vegetated", "conf_2019": 1.0, "imi_2019": 0.119, "informal_prob_2019": 0.0, "class_2020": "open_vegetated", "conf_2020": 1.0, "imi_2020": 0.114, "informal_prob_2020": 0.0, "class_2021": "open_vegetated", "conf_2021": 1.0, "imi_2021": 0.114, "informal_prob_2021": 0.0, "class_2022": "open_vegetated", "conf_2022": 1.0, "imi_2022": 0.115, "informal_prob_2022": 0.0, "class_2023": "open_vegetated", "conf_2023": 1.0, "imi_2023": 0.114, "informal_prob_2023": 0.0, "class_2024": "open_vegetated", "conf_2024": 1.0, "imi_2024": 0.113, "informal_prob_2024": 0.0, "class_2025": "open_vegetated", "conf_2025": 1.0, "imi_2025": 0.117, "informal_prob_2025": 0.0, "class_2026": "informal", "conf_2026": 0.999, "imi_2026": 0.429, "informal_prob_2026": 0.999, "trajectory": "new_informal", "cluster_last": 4, "emerging_score": 0.71933084889761667, "emerging_zone": 1, "building_count": 105.0, "building_density": 0.30086710565099029, "road_density": 0.0, "ndvi": 0.22321208115667104, "ndbi": 0.11147128675365821, "imi": 0.42934064973520036, "informal_probability": 0.99885504201680675, "confidence": 0.99885504201680675, "explanation": "road structure: 1.00; built-up intensity: 0.82; impervious surface: 0.42; building irregularity: 0.39; building density: 0.28" }, "geometry": { "type": "Polygon", "coordinates": [ [ [ 80.273506859388405, 13.069144902296747 ], [ 80.27350421459731, 13.070049096000279 ], [ 80.272581872549566, 13.070046501506303 ], [ 80.272584520697706, 13.0691423079884 ], [ 80.273506859388405, 13.069144902296747 ] ] ] } },
{ "type": "Feature", "properties": { "cell_id": 1002, "row": 31, "col": 10, "class_2019": "open_vegetated", "conf_2019": 0.991, "imi_2019": 0.042, "informal_prob_2019": 0.001, "class_2020": "open_vegetated", "conf_2020": 0.993, "imi_2020": 0.036, "informal_prob_2020": 0.001, "class_2021": "open_vegetated", "conf_2021": 0.993, "imi_2021": 0.034, "informal_prob_2021": 0.001, "class_2022": "open_vegetated", "conf_2022": 0.993, "imi_2022": 0.055, "informal_prob_2022": 0.001, "class_2023": "informal", "conf_2023": 0.998, "imi_2023": 0.327, "informal_prob_2023": 0.998, "class_2024": "informal", "conf_2024": 0.999, "imi_2024": 0.342, "informal_prob_2024": 0.999, "class_2025": "informal", "conf_2025": 0.993, "imi_2025": 0.339, "informal_prob_2025": 0.993, "class_2026": "informal", "conf_2026": 0.999, "imi_2026": 0.345, "informal_prob_2026": 0.999, "trajectory": "new_informal", "cluster_last": 4, "emerging_score": 0.69972711982367108, "emerging_zone": 1, "building_count": 91.0, "building_density": 0.26639449506067731, "road_density": 79.073242590901259, "ndvi": 0.21275676015764475, "ndbi": 0.11366112391464413, "imi": 0.34548801507365073, "informal_probability": 0.99914723032069974, "confidence": 0.99914723032069974, "explanation": "built-up intensity: 0.82; impervious surface: 0.48; building irregularity: 0.37; building density: 0.25; road structure: 0.21" }, "geometry": { "type": "Polygon", "coordinates": [ [ [ 80.266130826903549, 13.068219863409272 ], [ 80.266128155457267, 13.069124055684869 ], [ 80.265205818368003, 13.069121435049389 ], [ 80.265208493171059, 13.068217242961303 ], [ 80.266130826903549, 13.068219863409272 ] ] ] } },
{ "type": "Feature", "properties": { "cell_id": 1003, "row": 31, "col": 11, "class_2019": "open_vegetated", "conf_2019": 1.0, "imi_2019": 0.12, "informal_prob_2019": 0.0, "class_2020": "open_vegetated", "conf_2020": 1.0, "imi_2020": 0.119, "informal_prob_2020": 0.0, "class_2021": "open_vegetated", "conf_2021": 1.0, "imi_2021": 0.116, "informal_prob_2021": 0.0, "class_2022": "informal", "conf_2022": 0.998, "imi_2022": 0.4, "informal_prob_2022": 0.998, "class_2023": "informal", "conf_2023": 1.0, "imi_2023": 0.419, "informal_prob_2023": 1.0, "class_2024": "informal", "conf_2024": 0.996, "imi_2024": 0.447, "informal_prob_2024": 0.996, "class_2025": "informal", "conf_2025": 0.999, "imi_2025": 0.454, "informal_prob_2025": 0.999, "class_2026": "informal", "conf_2026": 0.992, "imi_2026": 0.472, "informal_prob_2026": 0.992, "trajectory": "new_informal", "cluster_last": 4, "emerging_score": 0.77220599946412105, "emerging_zone": 1, "building_count": 110.0, "building_density": 0.33600118421136416, "road_density": 0.0, "ndvi": 0.22457962663611397, "ndbi": 0.11893484953108782, "imi": 0.47209623989729915, "informal_probability": 0.99240712535014008, "confidence": 0.99240712535014008, "explanation": "road structure: 1.00; built-up intensity: 0.83; impervious surface: 0.45; building irregularity: 0.37; building density: 0.31" }, "geometry": { "type": "Polygon", "coordinates": [ [ [ 80.267053160837108, 13.068222480566599 ], [ 80.267050492747586, 13.069126673029471 ], [ 80.266128155457267, 13.069124055684869 ], [ 80.266130826903549, 13.068219863409272 ], [ 80.267053160837108, 13.068222480566599 ] ] ] } },
{ "type": "Feature", "properties": { "cell_id": 1004, "row": 31, "col": 12, "class_2019": "open_vegetated", "conf_2019": 1.0, "imi_2019": 0.103, "informal_prob_2019": 0.0, "class_2020": "open_vegetated", "conf_2020": 1.0, "imi_2020": 0.096, "informal_prob_2020": 0.0, "class_2021": "open_vegetated", "conf_2021": 1.0, "imi_2021": 0.095, "informal_prob_2021": 0.0, "class_2022": "open_vegetated", "conf_2022": 1.0, "imi_2022": 0.114, "informal_prob_2022": 0.0, "class_2023": "open_vegetated", "conf_2023": 1.0, "imi_2023": 0.117, "informal_prob_2023": 0.0, "class_2024": "informal", "conf_2024": 1.0, "imi_2024": 0.404, "informal_prob_2024": 1.0, "class_2025": "informal", "conf_2025": 0.997, "imi_2025": 0.436, "informal_prob_2025": 0.997, "class_2026": "informal", "conf_2026": 0.999, "imi_2026": 0.438, "informal_prob_2026": 0.999, "trajectory": "new_informal", "cluster_last": 4, "emerging_score": 0.74851553018773409, "emerging_zone": 1, "building_count": 108.0, "building_density": 0.32817730962728531, "road_density": 0.0, "ndvi": 0.22484526988118886, "ndbi": 0.11729717759415507, "imi": 0.43785871327713399, "informal_probability": 0.99855208333333334, "confidence": 0.99855208333333334, "explanation": "road structure: 1.00; built-up intensity: 0.82; impervious surface: 0.44; building irregularity: 0.40; building density: 0.30" }, "geometry": { "type": "Polygon", "coordinates": [ [ [ 80.267975494971466, 13.068225094433277 ], [ 80.267972830238719, 13.069129287083188 ], [ 80.267050492747586, 13.069126673029471 ], [ 80.267053160837108, 13.068222480566599 ], [ 80.267975494971466, 13.068225094433277 ] ] ] } },
{ "type": "Feature", "properties": { "cell_id": 1006, "row": 31, "col": 14, "class_2019": "open_vegetated", "conf_2019": 1.0, "imi_2019": 0.099, "informal_prob_2019": 0.0, "class_2020": "open_vegetated", "conf_2020": 1.0, "imi_2020": 0.093, "informal_prob_2020": 0.0, "class_2021": "open_vegetated", "conf_2021": 1.0, "imi_2021": 0.092, "informal_prob_2021": 0.0, "class_2022": "open_vegetated", "conf_2022": 0.998, "imi_2022": 0.097, "informal_prob_2022": 0.0, "class_2023": "open_vegetated", "conf_2023": 0.997, "imi_2023": 0.102, "informal_prob_2023": 0.0, "class_2024": "open_vegetated", "conf_2024": 0.989, "imi_2024": 0.14, "informal_prob_2024": 0.0, "class_2025": "informal", "conf_2025": 0.998, "imi_2025": 0.389, "informal_prob_2025": 0.998, "class_2026": "informal", "conf_2026": 0.996, "imi_2026": 0.387, "informal_prob_2026": 0.996, "trajectory": "new_informal", "cluster_last": 4, "emerging_score": 0.68070206053256399, "emerging_zone": 1, "building_count": 85.0, "building_density": 0.23520491216031406, "road_density": 0.0, "ndvi": 0.22994637389667333, "ndbi": 0.11039299126932747, "imi": 0.38715882662634965, "informal_probability": 0.99631670278220807, "confidence": 0.99631670278220807, "explanation": "road structure: 1.00; built-up intensity: 0.81; impervious surface: 0.39; building irregularity: 0.37; building density: 0.22" }, "geometry": { "type": "Polygon", "coordinates": [ [ [ 80.269820163841601, 13.068230312294675 ], [ 80.269817505822402, 13.069134505317956 ], [ 80.268895167930395, 13.069131897846017 ], [ 80.268897829306383, 13.068227705009303 ], [ 80.269820163841601, 13.068230312294675 ] ] ] } }
]
}
